<?xml version="1.0" encoding="UTF-8"?>
<gpx version="1.1" creator="trip-planner"
     xmlns="http://www.topografix.com/GPX/1/1">
  <metadata>
    <name>Bilbao Airport - Bakio</name>
    <time>2026-08-08T07:57:27Z</time>
  </metadata>
  <wpt lat="43.305130" lon="-2.906570">
    <name>Bilbao Airport</name>
  </wpt>
  <wpt lat="43.427066" lon="-2.808386">
    <name>Bakio</name>
  </wpt>
  <trk>
    <name>Bilbao Airport - Bakio</name>
    <trkseg>
      <trkpt lat="43.305790" lon="-2.906310"/>
      <trkpt lat="43.305740" lon="-2.906110"/>
      <trkpt lat="43.305680" lon="-2.905910"/>
      <trkpt lat="43.305640" lon="-2.905770"/>
      <trkpt lat="43.305600" lon="-2.905670"/>
      <trkpt lat="43.305500" lon="-2.905460"/>
      <trkpt lat="43.305370" lon="-2.905220"/>
      <trkpt lat="43.305270" lon="-2.905080"/>
      <trkpt lat="43.305240" lon="-2.905040"/>
      <trkpt lat="43.305190" lon="-2.904960"/>
      <trkpt lat="43.305140" lon="-2.904860"/>
      <trkpt lat="43.304950" lon="-2.904320"/>
      <trkpt lat="43.304860" lon="-2.904090"/>
      <trkpt lat="43.304730" lon="-2.903730"/>
      <trkpt lat="43.304670" lon="-2.903490"/>
      <trkpt lat="43.304640" lon="-2.903300"/>
      <trkpt lat="43.304630" lon="-2.903140"/>
      <trkpt lat="43.304620" lon="-2.902960"/>
      <trkpt lat="43.304650" lon="-2.902790"/>
      <trkpt lat="43.304710" lon="-2.902640"/>
      <trkpt lat="43.304760" lon="-2.902500"/>
      <trkpt lat="43.304860" lon="-2.902350"/>
      <trkpt lat="43.304960" lon="-2.902240"/>
      <trkpt lat="43.305020" lon="-2.902190"/>
      <trkpt lat="43.305100" lon="-2.902130"/>
      <trkpt lat="43.305280" lon="-2.902060"/>
      <trkpt lat="43.305440" lon="-2.902030"/>
      <trkpt lat="43.305600" lon="-2.901980"/>
      <trkpt lat="43.305690" lon="-2.901950"/>
      <trkpt lat="43.305770" lon="-2.901920"/>
      <trkpt lat="43.305810" lon="-2.901850"/>
      <trkpt lat="43.305850" lon="-2.901800"/>
      <trkpt lat="43.305910" lon="-2.901760"/>
      <trkpt lat="43.305970" lon="-2.901750"/>
      <trkpt lat="43.306030" lon="-2.901750"/>
      <trkpt lat="43.306130" lon="-2.901650"/>
      <trkpt lat="43.306220" lon="-2.901530"/>
      <trkpt lat="43.306300" lon="-2.901400"/>
      <trkpt lat="43.306360" lon="-2.901280"/>
      <trkpt lat="43.306390" lon="-2.901190"/>
      <trkpt lat="43.306480" lon="-2.900940"/>
      <trkpt lat="43.306650" lon="-2.900350"/>
      <trkpt lat="43.306670" lon="-2.900270"/>
      <trkpt lat="43.307010" lon="-2.899170"/>
      <trkpt lat="43.307160" lon="-2.898670"/>
      <trkpt lat="43.307260" lon="-2.898360"/>
      <trkpt lat="43.307370" lon="-2.897960"/>
      <trkpt lat="43.307450" lon="-2.897660"/>
      <trkpt lat="43.307540" lon="-2.897270"/>
      <trkpt lat="43.307660" lon="-2.896630"/>
      <trkpt lat="43.307690" lon="-2.896390"/>
      <trkpt lat="43.307730" lon="-2.896090"/>
      <trkpt lat="43.307830" lon="-2.895170"/>
      <trkpt lat="43.307840" lon="-2.894680"/>
      <trkpt lat="43.307830" lon="-2.893690"/>
      <trkpt lat="43.307800" lon="-2.893260"/>
      <trkpt lat="43.307670" lon="-2.892160"/>
      <trkpt lat="43.307530" lon="-2.891520"/>
      <trkpt lat="43.307490" lon="-2.891280"/>
      <trkpt lat="43.307330" lon="-2.890640"/>
      <trkpt lat="43.307080" lon="-2.889760"/>
      <trkpt lat="43.306800" lon="-2.888510"/>
      <trkpt lat="43.306640" lon="-2.887460"/>
      <trkpt lat="43.306600" lon="-2.886860"/>
      <trkpt lat="43.306590" lon="-2.886380"/>
      <trkpt lat="43.306630" lon="-2.885840"/>
      <trkpt lat="43.306690" lon="-2.885140"/>
      <trkpt lat="43.306790" lon="-2.884550"/>
      <trkpt lat="43.306860" lon="-2.884160"/>
      <trkpt lat="43.307090" lon="-2.883380"/>
      <trkpt lat="43.307160" lon="-2.883260"/>
      <trkpt lat="43.307270" lon="-2.882900"/>
      <trkpt lat="43.307460" lon="-2.882250"/>
      <trkpt lat="43.307520" lon="-2.882020"/>
      <trkpt lat="43.307580" lon="-2.881740"/>
      <trkpt lat="43.307600" lon="-2.881520"/>
      <trkpt lat="43.307620" lon="-2.881240"/>
      <trkpt lat="43.307610" lon="-2.880980"/>
      <trkpt lat="43.307570" lon="-2.880570"/>
      <trkpt lat="43.307490" lon="-2.880190"/>
      <trkpt lat="43.307420" lon="-2.879950"/>
      <trkpt lat="43.307320" lon="-2.879700"/>
      <trkpt lat="43.307210" lon="-2.879510"/>
      <trkpt lat="43.307090" lon="-2.879340"/>
      <trkpt lat="43.306950" lon="-2.879180"/>
      <trkpt lat="43.306760" lon="-2.879050"/>
      <trkpt lat="43.306580" lon="-2.878970"/>
      <trkpt lat="43.306490" lon="-2.878960"/>
      <trkpt lat="43.306330" lon="-2.878940"/>
      <trkpt lat="43.306200" lon="-2.878950"/>
      <trkpt lat="43.306100" lon="-2.879000"/>
      <trkpt lat="43.306040" lon="-2.879070"/>
      <trkpt lat="43.305990" lon="-2.879170"/>
      <trkpt lat="43.305970" lon="-2.879260"/>
      <trkpt lat="43.305960" lon="-2.879360"/>
      <trkpt lat="43.305970" lon="-2.879450"/>
      <trkpt lat="43.306020" lon="-2.879580"/>
      <trkpt lat="43.306120" lon="-2.879690"/>
      <trkpt lat="43.306220" lon="-2.879730"/>
      <trkpt lat="43.306370" lon="-2.879750"/>
      <trkpt lat="43.306740" lon="-2.879760"/>
      <trkpt lat="43.306900" lon="-2.879790"/>
      <trkpt lat="43.306990" lon="-2.879840"/>
      <trkpt lat="43.307260" lon="-2.879890"/>
      <trkpt lat="43.307890" lon="-2.879960"/>
      <trkpt lat="43.308160" lon="-2.880010"/>
      <trkpt lat="43.308460" lon="-2.880050"/>
      <trkpt lat="43.308780" lon="-2.880050"/>
      <trkpt lat="43.309110" lon="-2.880030"/>
      <trkpt lat="43.309440" lon="-2.879980"/>
      <trkpt lat="43.309910" lon="-2.879850"/>
      <trkpt lat="43.310690" lon="-2.879540"/>
      <trkpt lat="43.311450" lon="-2.879260"/>
      <trkpt lat="43.312180" lon="-2.878990"/>
      <trkpt lat="43.313490" lon="-2.878510"/>
      <trkpt lat="43.313880" lon="-2.878290"/>
      <trkpt lat="43.314320" lon="-2.878000"/>
      <trkpt lat="43.314640" lon="-2.877750"/>
      <trkpt lat="43.315030" lon="-2.877410"/>
      <trkpt lat="43.315580" lon="-2.876960"/>
      <trkpt lat="43.315850" lon="-2.876760"/>
      <trkpt lat="43.316140" lon="-2.876550"/>
      <trkpt lat="43.316320" lon="-2.876450"/>
      <trkpt lat="43.316620" lon="-2.876320"/>
      <trkpt lat="43.316960" lon="-2.876200"/>
      <trkpt lat="43.317340" lon="-2.876090"/>
      <trkpt lat="43.317930" lon="-2.875980"/>
      <trkpt lat="43.318520" lon="-2.875890"/>
      <trkpt lat="43.318830" lon="-2.875810"/>
      <trkpt lat="43.319080" lon="-2.875740"/>
      <trkpt lat="43.319410" lon="-2.875610"/>
      <trkpt lat="43.319820" lon="-2.875400"/>
      <trkpt lat="43.320220" lon="-2.875150"/>
      <trkpt lat="43.320640" lon="-2.874840"/>
      <trkpt lat="43.321360" lon="-2.874330"/>
      <trkpt lat="43.322160" lon="-2.873890"/>
      <trkpt lat="43.322770" lon="-2.873630"/>
      <trkpt lat="43.323300" lon="-2.873360"/>
      <trkpt lat="43.323650" lon="-2.873170"/>
      <trkpt lat="43.324180" lon="-2.872880"/>
      <trkpt lat="43.324740" lon="-2.872590"/>
      <trkpt lat="43.325160" lon="-2.872360"/>
      <trkpt lat="43.326900" lon="-2.871500"/>
      <trkpt lat="43.327240" lon="-2.871370"/>
      <trkpt lat="43.327300" lon="-2.871350"/>
      <trkpt lat="43.328850" lon="-2.870720"/>
      <trkpt lat="43.329930" lon="-2.870300"/>
      <trkpt lat="43.330480" lon="-2.870130"/>
      <trkpt lat="43.331390" lon="-2.869760"/>
      <trkpt lat="43.332220" lon="-2.869400"/>
      <trkpt lat="43.332550" lon="-2.869240"/>
      <trkpt lat="43.333260" lon="-2.868840"/>
      <trkpt lat="43.333820" lon="-2.868460"/>
      <trkpt lat="43.334360" lon="-2.868030"/>
      <trkpt lat="43.335050" lon="-2.867460"/>
      <trkpt lat="43.336200" lon="-2.866360"/>
      <trkpt lat="43.337100" lon="-2.865610"/>
      <trkpt lat="43.337610" lon="-2.865250"/>
      <trkpt lat="43.338110" lon="-2.864940"/>
      <trkpt lat="43.338820" lon="-2.864570"/>
      <trkpt lat="43.339540" lon="-2.864250"/>
      <trkpt lat="43.339840" lon="-2.864120"/>
      <trkpt lat="43.340780" lon="-2.863740"/>
      <trkpt lat="43.341440" lon="-2.863450"/>
      <trkpt lat="43.341870" lon="-2.863200"/>
      <trkpt lat="43.342590" lon="-2.862830"/>
      <trkpt lat="43.342950" lon="-2.862600"/>
      <trkpt lat="43.344110" lon="-2.861890"/>
      <trkpt lat="43.345200" lon="-2.861290"/>
      <trkpt lat="43.345770" lon="-2.861020"/>
      <trkpt lat="43.346480" lon="-2.860700"/>
      <trkpt lat="43.347160" lon="-2.860460"/>
      <trkpt lat="43.347960" lon="-2.860210"/>
      <trkpt lat="43.348460" lon="-2.860050"/>
      <trkpt lat="43.351220" lon="-2.859200"/>
      <trkpt lat="43.354210" lon="-2.858280"/>
      <trkpt lat="43.354950" lon="-2.858060"/>
      <trkpt lat="43.355430" lon="-2.857880"/>
      <trkpt lat="43.356010" lon="-2.857620"/>
      <trkpt lat="43.356190" lon="-2.857530"/>
      <trkpt lat="43.356340" lon="-2.857450"/>
      <trkpt lat="43.356560" lon="-2.857330"/>
      <trkpt lat="43.356970" lon="-2.857070"/>
      <trkpt lat="43.357360" lon="-2.856760"/>
      <trkpt lat="43.357750" lon="-2.856400"/>
      <trkpt lat="43.358010" lon="-2.856120"/>
      <trkpt lat="43.358260" lon="-2.855850"/>
      <trkpt lat="43.358490" lon="-2.855560"/>
      <trkpt lat="43.358820" lon="-2.855100"/>
      <trkpt lat="43.359140" lon="-2.854610"/>
      <trkpt lat="43.359420" lon="-2.854090"/>
      <trkpt lat="43.359670" lon="-2.853570"/>
      <trkpt lat="43.359850" lon="-2.853120"/>
      <trkpt lat="43.360090" lon="-2.852430"/>
      <trkpt lat="43.360210" lon="-2.852040"/>
      <trkpt lat="43.360330" lon="-2.851520"/>
      <trkpt lat="43.360460" lon="-2.850880"/>
      <trkpt lat="43.360540" lon="-2.850330"/>
      <trkpt lat="43.360610" lon="-2.849720"/>
      <trkpt lat="43.360650" lon="-2.849150"/>
      <trkpt lat="43.360670" lon="-2.848650"/>
      <trkpt lat="43.360690" lon="-2.848190"/>
      <trkpt lat="43.360690" lon="-2.847640"/>
      <trkpt lat="43.360680" lon="-2.847220"/>
      <trkpt lat="43.360680" lon="-2.846960"/>
      <trkpt lat="43.360670" lon="-2.846540"/>
      <trkpt lat="43.360650" lon="-2.846150"/>
      <trkpt lat="43.360610" lon="-2.845660"/>
      <trkpt lat="43.360510" lon="-2.844870"/>
      <trkpt lat="43.360440" lon="-2.844400"/>
      <trkpt lat="43.360280" lon="-2.843680"/>
      <trkpt lat="43.360110" lon="-2.843080"/>
      <trkpt lat="43.360010" lon="-2.842760"/>
      <trkpt lat="43.359820" lon="-2.842200"/>
      <trkpt lat="43.359660" lon="-2.841810"/>
      <trkpt lat="43.359470" lon="-2.841410"/>
      <trkpt lat="43.359230" lon="-2.840890"/>
      <trkpt lat="43.358920" lon="-2.840340"/>
      <trkpt lat="43.358750" lon="-2.840050"/>
      <trkpt lat="43.358180" lon="-2.839140"/>
      <trkpt lat="43.357750" lon="-2.838470"/>
      <trkpt lat="43.357390" lon="-2.837910"/>
      <trkpt lat="43.357320" lon="-2.837840"/>
      <trkpt lat="43.357270" lon="-2.837780"/>
      <trkpt lat="43.357200" lon="-2.837800"/>
      <trkpt lat="43.357130" lon="-2.837780"/>
      <trkpt lat="43.357050" lon="-2.837730"/>
      <trkpt lat="43.356990" lon="-2.837650"/>
      <trkpt lat="43.356950" lon="-2.837540"/>
      <trkpt lat="43.356940" lon="-2.837450"/>
      <trkpt lat="43.356950" lon="-2.837350"/>
      <trkpt lat="43.356970" lon="-2.837260"/>
      <trkpt lat="43.357020" lon="-2.837180"/>
      <trkpt lat="43.357080" lon="-2.837130"/>
      <trkpt lat="43.357140" lon="-2.837090"/>
      <trkpt lat="43.357200" lon="-2.837080"/>
      <trkpt lat="43.357260" lon="-2.837090"/>
      <trkpt lat="43.357360" lon="-2.837030"/>
      <trkpt lat="43.357470" lon="-2.836920"/>
      <trkpt lat="43.357570" lon="-2.836760"/>
      <trkpt lat="43.357840" lon="-2.836260"/>
      <trkpt lat="43.357990" lon="-2.836040"/>
      <trkpt lat="43.358050" lon="-2.835940"/>
      <trkpt lat="43.358100" lon="-2.835870"/>
      <trkpt lat="43.358130" lon="-2.835840"/>
      <trkpt lat="43.358180" lon="-2.835760"/>
      <trkpt lat="43.358280" lon="-2.835650"/>
      <trkpt lat="43.358350" lon="-2.835600"/>
      <trkpt lat="43.358440" lon="-2.835520"/>
      <trkpt lat="43.358650" lon="-2.835410"/>
      <trkpt lat="43.359010" lon="-2.835270"/>
      <trkpt lat="43.359410" lon="-2.835130"/>
      <trkpt lat="43.359660" lon="-2.835070"/>
      <trkpt lat="43.360130" lon="-2.834910"/>
      <trkpt lat="43.360350" lon="-2.834810"/>
      <trkpt lat="43.360410" lon="-2.834770"/>
      <trkpt lat="43.360460" lon="-2.834710"/>
      <trkpt lat="43.360550" lon="-2.834600"/>
      <trkpt lat="43.360650" lon="-2.834440"/>
      <trkpt lat="43.360690" lon="-2.834360"/>
      <trkpt lat="43.360760" lon="-2.834170"/>
      <trkpt lat="43.361010" lon="-2.833480"/>
      <trkpt lat="43.361500" lon="-2.832150"/>
      <trkpt lat="43.361710" lon="-2.831570"/>
      <trkpt lat="43.361860" lon="-2.831160"/>
      <trkpt lat="43.361930" lon="-2.830960"/>
      <trkpt lat="43.362180" lon="-2.830370"/>
      <trkpt lat="43.362440" lon="-2.829940"/>
      <trkpt lat="43.362630" lon="-2.829690"/>
      <trkpt lat="43.362810" lon="-2.829520"/>
      <trkpt lat="43.363020" lon="-2.829370"/>
      <trkpt lat="43.363230" lon="-2.829240"/>
      <trkpt lat="43.363490" lon="-2.829050"/>
      <trkpt lat="43.363600" lon="-2.828950"/>
      <trkpt lat="43.363690" lon="-2.828850"/>
      <trkpt lat="43.363950" lon="-2.828480"/>
      <trkpt lat="43.364050" lon="-2.828320"/>
      <trkpt lat="43.364110" lon="-2.828170"/>
      <trkpt lat="43.364270" lon="-2.827690"/>
      <trkpt lat="43.364600" lon="-2.826690"/>
      <trkpt lat="43.364820" lon="-2.826060"/>
      <trkpt lat="43.364910" lon="-2.825740"/>
      <trkpt lat="43.364940" lon="-2.825640"/>
      <trkpt lat="43.365070" lon="-2.825260"/>
      <trkpt lat="43.365170" lon="-2.824920"/>
      <trkpt lat="43.365210" lon="-2.824810"/>
      <trkpt lat="43.365230" lon="-2.824760"/>
      <trkpt lat="43.365290" lon="-2.824650"/>
      <trkpt lat="43.365400" lon="-2.824510"/>
      <trkpt lat="43.365650" lon="-2.824270"/>
      <trkpt lat="43.365730" lon="-2.824160"/>
      <trkpt lat="43.365800" lon="-2.824070"/>
      <trkpt lat="43.365850" lon="-2.824000"/>
      <trkpt lat="43.365930" lon="-2.823870"/>
      <trkpt lat="43.365980" lon="-2.823750"/>
      <trkpt lat="43.366030" lon="-2.823650"/>
      <trkpt lat="43.366050" lon="-2.823570"/>
      <trkpt lat="43.366070" lon="-2.823490"/>
      <trkpt lat="43.366090" lon="-2.823370"/>
      <trkpt lat="43.366090" lon="-2.823220"/>
      <trkpt lat="43.366080" lon="-2.823150"/>
      <trkpt lat="43.366070" lon="-2.823070"/>
      <trkpt lat="43.366030" lon="-2.822920"/>
      <trkpt lat="43.365990" lon="-2.822780"/>
      <trkpt lat="43.365950" lon="-2.822680"/>
      <trkpt lat="43.365910" lon="-2.822620"/>
      <trkpt lat="43.365850" lon="-2.822510"/>
      <trkpt lat="43.365780" lon="-2.822430"/>
      <trkpt lat="43.365540" lon="-2.822140"/>
      <trkpt lat="43.365360" lon="-2.821930"/>
      <trkpt lat="43.365320" lon="-2.821870"/>
      <trkpt lat="43.365220" lon="-2.821770"/>
      <trkpt lat="43.365090" lon="-2.821650"/>
      <trkpt lat="43.364990" lon="-2.821570"/>
      <trkpt lat="43.364880" lon="-2.821510"/>
      <trkpt lat="43.364700" lon="-2.821440"/>
      <trkpt lat="43.364220" lon="-2.821290"/>
      <trkpt lat="43.364050" lon="-2.821200"/>
      <trkpt lat="43.363920" lon="-2.821110"/>
      <trkpt lat="43.363850" lon="-2.821050"/>
      <trkpt lat="43.363820" lon="-2.821020"/>
      <trkpt lat="43.363750" lon="-2.820950"/>
      <trkpt lat="43.363660" lon="-2.820840"/>
      <trkpt lat="43.363550" lon="-2.820660"/>
      <trkpt lat="43.363460" lon="-2.820460"/>
      <trkpt lat="43.363390" lon="-2.820210"/>
      <trkpt lat="43.363350" lon="-2.819990"/>
      <trkpt lat="43.363340" lon="-2.819750"/>
      <trkpt lat="43.363350" lon="-2.819520"/>
      <trkpt lat="43.363370" lon="-2.819310"/>
      <trkpt lat="43.363450" lon="-2.819040"/>
      <trkpt lat="43.363610" lon="-2.818590"/>
      <trkpt lat="43.363730" lon="-2.818210"/>
      <trkpt lat="43.363780" lon="-2.817960"/>
      <trkpt lat="43.363800" lon="-2.817720"/>
      <trkpt lat="43.363790" lon="-2.817550"/>
      <trkpt lat="43.363790" lon="-2.817350"/>
      <trkpt lat="43.363770" lon="-2.817010"/>
      <trkpt lat="43.363770" lon="-2.816750"/>
      <trkpt lat="43.363780" lon="-2.816540"/>
      <trkpt lat="43.363820" lon="-2.816320"/>
      <trkpt lat="43.363880" lon="-2.816130"/>
      <trkpt lat="43.363940" lon="-2.815980"/>
      <trkpt lat="43.364010" lon="-2.815830"/>
      <trkpt lat="43.364120" lon="-2.815640"/>
      <trkpt lat="43.364300" lon="-2.815370"/>
      <trkpt lat="43.364450" lon="-2.815170"/>
      <trkpt lat="43.364570" lon="-2.814990"/>
      <trkpt lat="43.364760" lon="-2.814700"/>
      <trkpt lat="43.364800" lon="-2.814570"/>
      <trkpt lat="43.364830" lon="-2.814420"/>
      <trkpt lat="43.364840" lon="-2.814380"/>
      <trkpt lat="43.364830" lon="-2.814370"/>
      <trkpt lat="43.364830" lon="-2.814300"/>
      <trkpt lat="43.364840" lon="-2.814230"/>
      <trkpt lat="43.364860" lon="-2.814170"/>
      <trkpt lat="43.364900" lon="-2.814120"/>
      <trkpt lat="43.364950" lon="-2.814090"/>
      <trkpt lat="43.365010" lon="-2.814090"/>
      <trkpt lat="43.365030" lon="-2.814100"/>
      <trkpt lat="43.365170" lon="-2.814010"/>
      <trkpt lat="43.365240" lon="-2.813900"/>
      <trkpt lat="43.365260" lon="-2.813880"/>
      <trkpt lat="43.365390" lon="-2.813670"/>
      <trkpt lat="43.365450" lon="-2.813590"/>
      <trkpt lat="43.365610" lon="-2.813340"/>
      <trkpt lat="43.365630" lon="-2.813310"/>
      <trkpt lat="43.366170" lon="-2.812460"/>
      <trkpt lat="43.366550" lon="-2.811880"/>
      <trkpt lat="43.366760" lon="-2.811550"/>
      <trkpt lat="43.366830" lon="-2.811440"/>
      <trkpt lat="43.366980" lon="-2.811200"/>
      <trkpt lat="43.367220" lon="-2.810810"/>
      <trkpt lat="43.367530" lon="-2.810350"/>
      <trkpt lat="43.368720" lon="-2.808480"/>
      <trkpt lat="43.368790" lon="-2.808380"/>
      <trkpt lat="43.369030" lon="-2.808010"/>
      <trkpt lat="43.369150" lon="-2.807820"/>
      <trkpt lat="43.370160" lon="-2.806250"/>
      <trkpt lat="43.370220" lon="-2.806150"/>
      <trkpt lat="43.370300" lon="-2.806020"/>
      <trkpt lat="43.370620" lon="-2.805530"/>
      <trkpt lat="43.370800" lon="-2.805240"/>
      <trkpt lat="43.371030" lon="-2.804890"/>
      <trkpt lat="43.371180" lon="-2.804660"/>
      <trkpt lat="43.371540" lon="-2.804090"/>
      <trkpt lat="43.372090" lon="-2.803230"/>
      <trkpt lat="43.372210" lon="-2.803030"/>
      <trkpt lat="43.372380" lon="-2.802760"/>
      <trkpt lat="43.372730" lon="-2.802220"/>
      <trkpt lat="43.372980" lon="-2.801820"/>
      <trkpt lat="43.373010" lon="-2.801760"/>
      <trkpt lat="43.373070" lon="-2.801600"/>
      <trkpt lat="43.373100" lon="-2.801480"/>
      <trkpt lat="43.373120" lon="-2.801400"/>
      <trkpt lat="43.373110" lon="-2.801350"/>
      <trkpt lat="43.373110" lon="-2.801290"/>
      <trkpt lat="43.373120" lon="-2.801240"/>
      <trkpt lat="43.373140" lon="-2.801190"/>
      <trkpt lat="43.373170" lon="-2.801150"/>
      <trkpt lat="43.373210" lon="-2.801120"/>
      <trkpt lat="43.373250" lon="-2.801110"/>
      <trkpt lat="43.373290" lon="-2.801110"/>
      <trkpt lat="43.373320" lon="-2.801120"/>
      <trkpt lat="43.373360" lon="-2.801140"/>
      <trkpt lat="43.373390" lon="-2.801180"/>
      <trkpt lat="43.373410" lon="-2.801230"/>
      <trkpt lat="43.373420" lon="-2.801280"/>
      <trkpt lat="43.373480" lon="-2.801340"/>
      <trkpt lat="43.373570" lon="-2.801390"/>
      <trkpt lat="43.373650" lon="-2.801440"/>
      <trkpt lat="43.373750" lon="-2.801510"/>
      <trkpt lat="43.373840" lon="-2.801550"/>
      <trkpt lat="43.373950" lon="-2.801620"/>
      <trkpt lat="43.374030" lon="-2.801680"/>
      <trkpt lat="43.374090" lon="-2.801720"/>
      <trkpt lat="43.374170" lon="-2.801770"/>
      <trkpt lat="43.374260" lon="-2.801810"/>
      <trkpt lat="43.374330" lon="-2.801840"/>
      <trkpt lat="43.374420" lon="-2.801870"/>
      <trkpt lat="43.374980" lon="-2.802010"/>
      <trkpt lat="43.375190" lon="-2.802060"/>
      <trkpt lat="43.375410" lon="-2.802110"/>
      <trkpt lat="43.375570" lon="-2.802130"/>
      <trkpt lat="43.375770" lon="-2.802130"/>
      <trkpt lat="43.376040" lon="-2.802100"/>
      <trkpt lat="43.376240" lon="-2.802070"/>
      <trkpt lat="43.376500" lon="-2.802020"/>
      <trkpt lat="43.376730" lon="-2.801960"/>
      <trkpt lat="43.377010" lon="-2.801880"/>
      <trkpt lat="43.377200" lon="-2.801850"/>
      <trkpt lat="43.377360" lon="-2.801830"/>
      <trkpt lat="43.377560" lon="-2.801820"/>
      <trkpt lat="43.377700" lon="-2.801810"/>
      <trkpt lat="43.378090" lon="-2.801770"/>
      <trkpt lat="43.378290" lon="-2.801750"/>
      <trkpt lat="43.378510" lon="-2.801690"/>
      <trkpt lat="43.378820" lon="-2.801600"/>
      <trkpt lat="43.378960" lon="-2.801550"/>
      <trkpt lat="43.379320" lon="-2.801430"/>
      <trkpt lat="43.379680" lon="-2.801310"/>
      <trkpt lat="43.379850" lon="-2.801260"/>
      <trkpt lat="43.379990" lon="-2.801250"/>
      <trkpt lat="43.380050" lon="-2.801250"/>
      <trkpt lat="43.380120" lon="-2.801260"/>
      <trkpt lat="43.380170" lon="-2.801280"/>
      <trkpt lat="43.380240" lon="-2.801300"/>
      <trkpt lat="43.380380" lon="-2.801380"/>
      <trkpt lat="43.380640" lon="-2.801560"/>
      <trkpt lat="43.380700" lon="-2.801610"/>
      <trkpt lat="43.380920" lon="-2.801760"/>
      <trkpt lat="43.381000" lon="-2.801800"/>
      <trkpt lat="43.381070" lon="-2.801820"/>
      <trkpt lat="43.381140" lon="-2.801820"/>
      <trkpt lat="43.381190" lon="-2.801800"/>
      <trkpt lat="43.381270" lon="-2.801780"/>
      <trkpt lat="43.381340" lon="-2.801730"/>
      <trkpt lat="43.381390" lon="-2.801670"/>
      <trkpt lat="43.381450" lon="-2.801580"/>
      <trkpt lat="43.381580" lon="-2.801400"/>
      <trkpt lat="43.381680" lon="-2.801280"/>
      <trkpt lat="43.381760" lon="-2.801190"/>
      <trkpt lat="43.381860" lon="-2.801120"/>
      <trkpt lat="43.381950" lon="-2.801080"/>
      <trkpt lat="43.382090" lon="-2.801050"/>
      <trkpt lat="43.382160" lon="-2.801060"/>
      <trkpt lat="43.382260" lon="-2.801090"/>
      <trkpt lat="43.382350" lon="-2.801130"/>
      <trkpt lat="43.382450" lon="-2.801220"/>
      <trkpt lat="43.382510" lon="-2.801300"/>
      <trkpt lat="43.382550" lon="-2.801360"/>
      <trkpt lat="43.382630" lon="-2.801490"/>
      <trkpt lat="43.382680" lon="-2.801580"/>
      <trkpt lat="43.382730" lon="-2.801680"/>
      <trkpt lat="43.382800" lon="-2.801810"/>
      <trkpt lat="43.382870" lon="-2.801940"/>
      <trkpt lat="43.382930" lon="-2.802020"/>
      <trkpt lat="43.382980" lon="-2.802090"/>
      <trkpt lat="43.383060" lon="-2.802150"/>
      <trkpt lat="43.383130" lon="-2.802190"/>
      <trkpt lat="43.383210" lon="-2.802220"/>
      <trkpt lat="43.383310" lon="-2.802240"/>
      <trkpt lat="43.383480" lon="-2.802240"/>
      <trkpt lat="43.383630" lon="-2.802250"/>
      <trkpt lat="43.383850" lon="-2.802260"/>
      <trkpt lat="43.383980" lon="-2.802250"/>
      <trkpt lat="43.384090" lon="-2.802240"/>
      <trkpt lat="43.384180" lon="-2.802210"/>
      <trkpt lat="43.384290" lon="-2.802180"/>
      <trkpt lat="43.384420" lon="-2.802120"/>
      <trkpt lat="43.384520" lon="-2.802050"/>
      <trkpt lat="43.384650" lon="-2.801950"/>
      <trkpt lat="43.384740" lon="-2.801850"/>
      <trkpt lat="43.384790" lon="-2.801790"/>
      <trkpt lat="43.384860" lon="-2.801710"/>
      <trkpt lat="43.384930" lon="-2.801600"/>
      <trkpt lat="43.385010" lon="-2.801460"/>
      <trkpt lat="43.385140" lon="-2.801230"/>
      <trkpt lat="43.385210" lon="-2.801100"/>
      <trkpt lat="43.385320" lon="-2.800970"/>
      <trkpt lat="43.385390" lon="-2.800930"/>
      <trkpt lat="43.385470" lon="-2.800900"/>
      <trkpt lat="43.385600" lon="-2.800870"/>
      <trkpt lat="43.385720" lon="-2.800880"/>
      <trkpt lat="43.385990" lon="-2.800910"/>
      <trkpt lat="43.386100" lon="-2.800920"/>
      <trkpt lat="43.386170" lon="-2.800930"/>
      <trkpt lat="43.386270" lon="-2.800910"/>
      <trkpt lat="43.386330" lon="-2.800890"/>
      <trkpt lat="43.386420" lon="-2.800850"/>
      <trkpt lat="43.386510" lon="-2.800770"/>
      <trkpt lat="43.386560" lon="-2.800710"/>
      <trkpt lat="43.386680" lon="-2.800560"/>
      <trkpt lat="43.386750" lon="-2.800460"/>
      <trkpt lat="43.386820" lon="-2.800390"/>
      <trkpt lat="43.386880" lon="-2.800340"/>
      <trkpt lat="43.386960" lon="-2.800310"/>
      <trkpt lat="43.387040" lon="-2.800300"/>
      <trkpt lat="43.387110" lon="-2.800310"/>
      <trkpt lat="43.387260" lon="-2.800330"/>
      <trkpt lat="43.387350" lon="-2.800340"/>
      <trkpt lat="43.387420" lon="-2.800340"/>
      <trkpt lat="43.387480" lon="-2.800310"/>
      <trkpt lat="43.387530" lon="-2.800290"/>
      <trkpt lat="43.387580" lon="-2.800250"/>
      <trkpt lat="43.387640" lon="-2.800180"/>
      <trkpt lat="43.387700" lon="-2.800090"/>
      <trkpt lat="43.387810" lon="-2.799890"/>
      <trkpt lat="43.387880" lon="-2.799730"/>
      <trkpt lat="43.387950" lon="-2.799600"/>
      <trkpt lat="43.388060" lon="-2.799460"/>
      <trkpt lat="43.388150" lon="-2.799400"/>
      <trkpt lat="43.388250" lon="-2.799370"/>
      <trkpt lat="43.388430" lon="-2.799370"/>
      <trkpt lat="43.388560" lon="-2.799380"/>
      <trkpt lat="43.388780" lon="-2.799410"/>
      <trkpt lat="43.388930" lon="-2.799430"/>
      <trkpt lat="43.389050" lon="-2.799420"/>
      <trkpt lat="43.389130" lon="-2.799400"/>
      <trkpt lat="43.389330" lon="-2.799320"/>
      <trkpt lat="43.390100" lon="-2.799010"/>
      <trkpt lat="43.390170" lon="-2.798980"/>
      <trkpt lat="43.390260" lon="-2.798960"/>
      <trkpt lat="43.390350" lon="-2.798970"/>
      <trkpt lat="43.390420" lon="-2.798990"/>
      <trkpt lat="43.390480" lon="-2.799020"/>
      <trkpt lat="43.390570" lon="-2.799090"/>
      <trkpt lat="43.390710" lon="-2.799210"/>
      <trkpt lat="43.390850" lon="-2.799350"/>
      <trkpt lat="43.390920" lon="-2.799410"/>
      <trkpt lat="43.391040" lon="-2.799550"/>
      <trkpt lat="43.391160" lon="-2.799750"/>
      <trkpt lat="43.391440" lon="-2.800180"/>
      <trkpt lat="43.391490" lon="-2.800250"/>
      <trkpt lat="43.391540" lon="-2.800300"/>
      <trkpt lat="43.391630" lon="-2.800370"/>
      <trkpt lat="43.392190" lon="-2.800690"/>
      <trkpt lat="43.392250" lon="-2.800740"/>
      <trkpt lat="43.392310" lon="-2.800800"/>
      <trkpt lat="43.392350" lon="-2.800880"/>
      <trkpt lat="43.392370" lon="-2.800960"/>
      <trkpt lat="43.392370" lon="-2.801060"/>
      <trkpt lat="43.392340" lon="-2.801510"/>
      <trkpt lat="43.392340" lon="-2.801630"/>
      <trkpt lat="43.392350" lon="-2.801720"/>
      <trkpt lat="43.392380" lon="-2.801820"/>
      <trkpt lat="43.392450" lon="-2.801950"/>
      <trkpt lat="43.392820" lon="-2.802530"/>
      <trkpt lat="43.392920" lon="-2.802690"/>
      <trkpt lat="43.393010" lon="-2.802870"/>
      <trkpt lat="43.393190" lon="-2.803270"/>
      <trkpt lat="43.393240" lon="-2.803360"/>
      <trkpt lat="43.393300" lon="-2.803440"/>
      <trkpt lat="43.393370" lon="-2.803510"/>
      <trkpt lat="43.393440" lon="-2.803560"/>
      <trkpt lat="43.393530" lon="-2.803600"/>
      <trkpt lat="43.393990" lon="-2.803730"/>
      <trkpt lat="43.394070" lon="-2.803760"/>
      <trkpt lat="43.394120" lon="-2.803790"/>
      <trkpt lat="43.394170" lon="-2.803850"/>
      <trkpt lat="43.394200" lon="-2.803920"/>
      <trkpt lat="43.394220" lon="-2.803980"/>
      <trkpt lat="43.394240" lon="-2.804080"/>
      <trkpt lat="43.394220" lon="-2.804180"/>
      <trkpt lat="43.394180" lon="-2.804290"/>
      <trkpt lat="43.394000" lon="-2.804660"/>
      <trkpt lat="43.393950" lon="-2.804760"/>
      <trkpt lat="43.393930" lon="-2.804850"/>
      <trkpt lat="43.393930" lon="-2.804940"/>
      <trkpt lat="43.393930" lon="-2.805010"/>
      <trkpt lat="43.393950" lon="-2.805110"/>
      <trkpt lat="43.394000" lon="-2.805220"/>
      <trkpt lat="43.394330" lon="-2.805770"/>
      <trkpt lat="43.394400" lon="-2.805850"/>
      <trkpt lat="43.394470" lon="-2.805880"/>
      <trkpt lat="43.394540" lon="-2.805900"/>
      <trkpt lat="43.394610" lon="-2.805900"/>
      <trkpt lat="43.394820" lon="-2.805850"/>
      <trkpt lat="43.394930" lon="-2.805850"/>
      <trkpt lat="43.394970" lon="-2.805850"/>
      <trkpt lat="43.395030" lon="-2.805880"/>
      <trkpt lat="43.395080" lon="-2.805920"/>
      <trkpt lat="43.395150" lon="-2.806010"/>
      <trkpt lat="43.395220" lon="-2.806140"/>
      <trkpt lat="43.395320" lon="-2.806320"/>
      <trkpt lat="43.395380" lon="-2.806420"/>
      <trkpt lat="43.395450" lon="-2.806510"/>
      <trkpt lat="43.395530" lon="-2.806600"/>
      <trkpt lat="43.395650" lon="-2.806710"/>
      <trkpt lat="43.395910" lon="-2.806920"/>
      <trkpt lat="43.396190" lon="-2.807130"/>
      <trkpt lat="43.396360" lon="-2.807260"/>
      <trkpt lat="43.396570" lon="-2.807450"/>
      <trkpt lat="43.396670" lon="-2.807530"/>
      <trkpt lat="43.396760" lon="-2.807590"/>
      <trkpt lat="43.396860" lon="-2.807620"/>
      <trkpt lat="43.396950" lon="-2.807630"/>
      <trkpt lat="43.397060" lon="-2.807630"/>
      <trkpt lat="43.397120" lon="-2.807610"/>
      <trkpt lat="43.397200" lon="-2.807570"/>
      <trkpt lat="43.397320" lon="-2.807490"/>
      <trkpt lat="43.397560" lon="-2.807340"/>
      <trkpt lat="43.397640" lon="-2.807300"/>
      <trkpt lat="43.397710" lon="-2.807280"/>
      <trkpt lat="43.397780" lon="-2.807280"/>
      <trkpt lat="43.397920" lon="-2.807280"/>
      <trkpt lat="43.398000" lon="-2.807280"/>
      <trkpt lat="43.398080" lon="-2.807260"/>
      <trkpt lat="43.398190" lon="-2.807210"/>
      <trkpt lat="43.398270" lon="-2.807150"/>
      <trkpt lat="43.398360" lon="-2.807120"/>
      <trkpt lat="43.398420" lon="-2.807110"/>
      <trkpt lat="43.398490" lon="-2.807120"/>
      <trkpt lat="43.398560" lon="-2.807150"/>
      <trkpt lat="43.398670" lon="-2.807220"/>
      <trkpt lat="43.399620" lon="-2.807980"/>
      <trkpt lat="43.399790" lon="-2.808100"/>
      <trkpt lat="43.399980" lon="-2.808230"/>
      <trkpt lat="43.400160" lon="-2.808330"/>
      <trkpt lat="43.400340" lon="-2.808400"/>
      <trkpt lat="43.400570" lon="-2.808480"/>
      <trkpt lat="43.401340" lon="-2.808740"/>
      <trkpt lat="43.401430" lon="-2.808780"/>
      <trkpt lat="43.401560" lon="-2.808850"/>
      <trkpt lat="43.401690" lon="-2.808950"/>
      <trkpt lat="43.401740" lon="-2.809000"/>
      <trkpt lat="43.401810" lon="-2.809090"/>
      <trkpt lat="43.401910" lon="-2.809200"/>
      <trkpt lat="43.401990" lon="-2.809300"/>
      <trkpt lat="43.402530" lon="-2.809980"/>
      <trkpt lat="43.402680" lon="-2.810160"/>
      <trkpt lat="43.402840" lon="-2.810320"/>
      <trkpt lat="43.402970" lon="-2.810440"/>
      <trkpt lat="43.403120" lon="-2.810580"/>
      <trkpt lat="43.403410" lon="-2.810810"/>
      <trkpt lat="43.403680" lon="-2.811020"/>
      <trkpt lat="43.403990" lon="-2.811280"/>
      <trkpt lat="43.404120" lon="-2.811410"/>
      <trkpt lat="43.404220" lon="-2.811510"/>
      <trkpt lat="43.404450" lon="-2.811780"/>
      <trkpt lat="43.404550" lon="-2.811890"/>
      <trkpt lat="43.404700" lon="-2.812010"/>
      <trkpt lat="43.404810" lon="-2.812090"/>
      <trkpt lat="43.404910" lon="-2.812150"/>
      <trkpt lat="43.405160" lon="-2.812260"/>
      <trkpt lat="43.405390" lon="-2.812360"/>
      <trkpt lat="43.405740" lon="-2.812500"/>
      <trkpt lat="43.405960" lon="-2.812600"/>
      <trkpt lat="43.406150" lon="-2.812690"/>
      <trkpt lat="43.406350" lon="-2.812810"/>
      <trkpt lat="43.406470" lon="-2.812900"/>
      <trkpt lat="43.406550" lon="-2.812960"/>
      <trkpt lat="43.406690" lon="-2.813080"/>
      <trkpt lat="43.407040" lon="-2.813440"/>
      <trkpt lat="43.407140" lon="-2.813550"/>
      <trkpt lat="43.407270" lon="-2.813650"/>
      <trkpt lat="43.407420" lon="-2.813750"/>
      <trkpt lat="43.408270" lon="-2.814150"/>
      <trkpt lat="43.408380" lon="-2.814200"/>
      <trkpt lat="43.408870" lon="-2.814440"/>
      <trkpt lat="43.409000" lon="-2.814480"/>
      <trkpt lat="43.409120" lon="-2.814510"/>
      <trkpt lat="43.409170" lon="-2.814530"/>
      <trkpt lat="43.409270" lon="-2.814550"/>
      <trkpt lat="43.409370" lon="-2.814570"/>
      <trkpt lat="43.409480" lon="-2.814590"/>
      <trkpt lat="43.409640" lon="-2.814610"/>
      <trkpt lat="43.409710" lon="-2.814620"/>
      <trkpt lat="43.409800" lon="-2.814630"/>
      <trkpt lat="43.410280" lon="-2.814670"/>
      <trkpt lat="43.410470" lon="-2.814670"/>
      <trkpt lat="43.410590" lon="-2.814650"/>
      <trkpt lat="43.410740" lon="-2.814630"/>
      <trkpt lat="43.410830" lon="-2.814610"/>
      <trkpt lat="43.411260" lon="-2.814510"/>
      <trkpt lat="43.411390" lon="-2.814490"/>
      <trkpt lat="43.411720" lon="-2.814420"/>
      <trkpt lat="43.411980" lon="-2.814360"/>
      <trkpt lat="43.412200" lon="-2.814310"/>
      <trkpt lat="43.412300" lon="-2.814280"/>
      <trkpt lat="43.412430" lon="-2.814220"/>
      <trkpt lat="43.412630" lon="-2.814080"/>
      <trkpt lat="43.412810" lon="-2.813960"/>
      <trkpt lat="43.413040" lon="-2.813830"/>
      <trkpt lat="43.413200" lon="-2.813760"/>
      <trkpt lat="43.413300" lon="-2.813700"/>
      <trkpt lat="43.413660" lon="-2.813520"/>
      <trkpt lat="43.413720" lon="-2.813490"/>
      <trkpt lat="43.413930" lon="-2.813380"/>
      <trkpt lat="43.414120" lon="-2.813280"/>
      <trkpt lat="43.414310" lon="-2.813180"/>
      <trkpt lat="43.414500" lon="-2.813080"/>
      <trkpt lat="43.415830" lon="-2.812400"/>
      <trkpt lat="43.415930" lon="-2.812350"/>
      <trkpt lat="43.416010" lon="-2.812330"/>
      <trkpt lat="43.416040" lon="-2.812030"/>
      <trkpt lat="43.416050" lon="-2.811970"/>
      <trkpt lat="43.416220" lon="-2.812050"/>
      <trkpt lat="43.416440" lon="-2.812130"/>
      <trkpt lat="43.416670" lon="-2.812180"/>
      <trkpt lat="43.416760" lon="-2.812200"/>
      <trkpt lat="43.416920" lon="-2.812220"/>
      <trkpt lat="43.417180" lon="-2.812230"/>
      <trkpt lat="43.417250" lon="-2.812250"/>
      <trkpt lat="43.417320" lon="-2.812290"/>
      <trkpt lat="43.417440" lon="-2.812330"/>
      <trkpt lat="43.417540" lon="-2.812350"/>
      <trkpt lat="43.417650" lon="-2.812360"/>
      <trkpt lat="43.417780" lon="-2.812330"/>
      <trkpt lat="43.418190" lon="-2.812220"/>
      <trkpt lat="43.418270" lon="-2.812170"/>
      <trkpt lat="43.418310" lon="-2.812140"/>
      <trkpt lat="43.418340" lon="-2.812080"/>
      <trkpt lat="43.418430" lon="-2.811950"/>
      <trkpt lat="43.418550" lon="-2.811840"/>
      <trkpt lat="43.418620" lon="-2.811740"/>
      <trkpt lat="43.418740" lon="-2.811590"/>
      <trkpt lat="43.418810" lon="-2.811500"/>
      <trkpt lat="43.418890" lon="-2.811440"/>
      <trkpt lat="43.418960" lon="-2.811400"/>
      <trkpt lat="43.419030" lon="-2.811380"/>
      <trkpt lat="43.419170" lon="-2.811340"/>
      <trkpt lat="43.419210" lon="-2.811330"/>
      <trkpt lat="43.419280" lon="-2.811310"/>
      <trkpt lat="43.419280" lon="-2.811280"/>
      <trkpt lat="43.419290" lon="-2.811260"/>
      <trkpt lat="43.419300" lon="-2.811250"/>
      <trkpt lat="43.419310" lon="-2.811230"/>
      <trkpt lat="43.419320" lon="-2.811220"/>
      <trkpt lat="43.419340" lon="-2.811220"/>
      <trkpt lat="43.419360" lon="-2.811230"/>
      <trkpt lat="43.419370" lon="-2.811240"/>
      <trkpt lat="43.419380" lon="-2.811260"/>
      <trkpt lat="43.419390" lon="-2.811280"/>
      <trkpt lat="43.419500" lon="-2.811270"/>
      <trkpt lat="43.419640" lon="-2.811260"/>
      <trkpt lat="43.419750" lon="-2.811260"/>
      <trkpt lat="43.419820" lon="-2.811270"/>
      <trkpt lat="43.419890" lon="-2.811270"/>
      <trkpt lat="43.420000" lon="-2.811280"/>
      <trkpt lat="43.420040" lon="-2.811290"/>
      <trkpt lat="43.420090" lon="-2.811300"/>
      <trkpt lat="43.420210" lon="-2.811330"/>
      <trkpt lat="43.420350" lon="-2.811370"/>
      <trkpt lat="43.420640" lon="-2.811480"/>
      <trkpt lat="43.420720" lon="-2.811510"/>
      <trkpt lat="43.420780" lon="-2.811520"/>
      <trkpt lat="43.420830" lon="-2.811530"/>
      <trkpt lat="43.420870" lon="-2.811540"/>
      <trkpt lat="43.420960" lon="-2.811550"/>
      <trkpt lat="43.421110" lon="-2.811570"/>
      <trkpt lat="43.421280" lon="-2.811580"/>
      <trkpt lat="43.421430" lon="-2.811580"/>
      <trkpt lat="43.421610" lon="-2.811570"/>
      <trkpt lat="43.421960" lon="-2.811520"/>
      <trkpt lat="43.422130" lon="-2.811510"/>
      <trkpt lat="43.422300" lon="-2.811520"/>
      <trkpt lat="43.422480" lon="-2.811530"/>
      <trkpt lat="43.422550" lon="-2.811530"/>
      <trkpt lat="43.422580" lon="-2.811530"/>
      <trkpt lat="43.422620" lon="-2.811520"/>
      <trkpt lat="43.422610" lon="-2.811500"/>
      <trkpt lat="43.422610" lon="-2.811480"/>
      <trkpt lat="43.422620" lon="-2.811460"/>
      <trkpt lat="43.422630" lon="-2.811440"/>
      <trkpt lat="43.422640" lon="-2.811430"/>
      <trkpt lat="43.422650" lon="-2.811420"/>
      <trkpt lat="43.422670" lon="-2.811420"/>
      <trkpt lat="43.422680" lon="-2.811380"/>
      <trkpt lat="43.422690" lon="-2.811270"/>
      <trkpt lat="43.422750" lon="-2.810940"/>
      <trkpt lat="43.422800" lon="-2.810720"/>
      <trkpt lat="43.422850" lon="-2.810590"/>
      <trkpt lat="43.422880" lon="-2.810520"/>
      <trkpt lat="43.422950" lon="-2.810440"/>
      <trkpt lat="43.422980" lon="-2.810410"/>
      <trkpt lat="43.423040" lon="-2.810360"/>
      <trkpt lat="43.423070" lon="-2.810340"/>
      <trkpt lat="43.423130" lon="-2.810310"/>
      <trkpt lat="43.423250" lon="-2.810300"/>
      <trkpt lat="43.423450" lon="-2.810300"/>
      <trkpt lat="43.423560" lon="-2.810260"/>
      <trkpt lat="43.423710" lon="-2.810150"/>
      <trkpt lat="43.423750" lon="-2.810110"/>
      <trkpt lat="43.423760" lon="-2.810040"/>
      <trkpt lat="43.423780" lon="-2.809950"/>
      <trkpt lat="43.423850" lon="-2.809790"/>
      <trkpt lat="43.424060" lon="-2.809270"/>
      <trkpt lat="43.424100" lon="-2.809110"/>
      <trkpt lat="43.424130" lon="-2.808950"/>
      <trkpt lat="43.424140" lon="-2.808860"/>
      <trkpt lat="43.424150" lon="-2.808820"/>
      <trkpt lat="43.424150" lon="-2.808760"/>
      <trkpt lat="43.424170" lon="-2.808750"/>
      <trkpt lat="43.424210" lon="-2.808760"/>
      <trkpt lat="43.424240" lon="-2.808760"/>
      <trkpt lat="43.424250" lon="-2.808710"/>
      <trkpt lat="43.424260" lon="-2.808690"/>
      <trkpt lat="43.424260" lon="-2.808670"/>
      <trkpt lat="43.424280" lon="-2.808640"/>
      <trkpt lat="43.424310" lon="-2.808620"/>
      <trkpt lat="43.424350" lon="-2.808620"/>
      <trkpt lat="43.424380" lon="-2.808630"/>
      <trkpt lat="43.424410" lon="-2.808650"/>
      <trkpt lat="43.424420" lon="-2.808690"/>
      <trkpt lat="43.424660" lon="-2.808480"/>
      <trkpt lat="43.425260" lon="-2.807950"/>
      <trkpt lat="43.425790" lon="-2.807470"/>
      <trkpt lat="43.425840" lon="-2.807410"/>
      <trkpt lat="43.425850" lon="-2.807400"/>
      <trkpt lat="43.425800" lon="-2.807300"/>
      <trkpt lat="43.425760" lon="-2.807210"/>
      <trkpt lat="43.425740" lon="-2.807130"/>
      <trkpt lat="43.425730" lon="-2.807030"/>
      <trkpt lat="43.425740" lon="-2.806920"/>
      <trkpt lat="43.425760" lon="-2.806810"/>
      <trkpt lat="43.425820" lon="-2.806700"/>
      <trkpt lat="43.425830" lon="-2.806690"/>
      <trkpt lat="43.425860" lon="-2.806660"/>
      <trkpt lat="43.425960" lon="-2.806600"/>
      <trkpt lat="43.426070" lon="-2.806570"/>
      <trkpt lat="43.426150" lon="-2.806560"/>
      <trkpt lat="43.426180" lon="-2.806560"/>
      <trkpt lat="43.426280" lon="-2.806540"/>
      <trkpt lat="43.426570" lon="-2.806650"/>
      <trkpt lat="43.426880" lon="-2.806780"/>
      <trkpt lat="43.426830" lon="-2.807260"/>
      <trkpt lat="43.426820" lon="-2.807450"/>
      <trkpt lat="43.426830" lon="-2.807940"/>
    </trkseg>
  </trk>
</gpx>