<?xml version="1.0" encoding="UTF-8"?>
<gpx version="1.1" creator="trip-planner"
     xmlns="http://www.topografix.com/GPX/1/1">
  <metadata>
    <name>Vitoria-Gasteiz - Bilbao</name>
    <time>2026-08-08T08:00:36Z</time>
  </metadata>
  <wpt lat="42.854747" lon="-2.676179">
    <name>Vitoria-Gasteiz</name>
  </wpt>
  <wpt lat="43.258534" lon="-2.937123">
    <name>Bilbao</name>
  </wpt>
  <trk>
    <name>Vitoria-Gasteiz - Bilbao</name>
    <trkseg>
      <trkpt lat="42.854790" lon="-2.676400"/>
      <trkpt lat="42.856320" lon="-2.675880"/>
      <trkpt lat="42.856400" lon="-2.675860"/>
      <trkpt lat="42.856680" lon="-2.675770"/>
      <trkpt lat="42.856710" lon="-2.675760"/>
      <trkpt lat="42.856790" lon="-2.675730"/>
      <trkpt lat="42.856870" lon="-2.675740"/>
      <trkpt lat="42.856900" lon="-2.675750"/>
      <trkpt lat="42.857210" lon="-2.675890"/>
      <trkpt lat="42.857260" lon="-2.675910"/>
      <trkpt lat="42.857900" lon="-2.676170"/>
      <trkpt lat="42.857980" lon="-2.676200"/>
      <trkpt lat="42.858400" lon="-2.676380"/>
      <trkpt lat="42.858440" lon="-2.676390"/>
      <trkpt lat="42.858570" lon="-2.676450"/>
      <trkpt lat="42.858550" lon="-2.676550"/>
      <trkpt lat="42.858320" lon="-2.677600"/>
      <trkpt lat="42.858250" lon="-2.677930"/>
      <trkpt lat="42.858200" lon="-2.678160"/>
      <trkpt lat="42.858160" lon="-2.678350"/>
      <trkpt lat="42.858140" lon="-2.678450"/>
      <trkpt lat="42.858030" lon="-2.678990"/>
      <trkpt lat="42.857960" lon="-2.679340"/>
      <trkpt lat="42.857780" lon="-2.680120"/>
      <trkpt lat="42.857720" lon="-2.680380"/>
      <trkpt lat="42.857630" lon="-2.680820"/>
      <trkpt lat="42.857620" lon="-2.680870"/>
      <trkpt lat="42.857610" lon="-2.680910"/>
      <trkpt lat="42.857590" lon="-2.680990"/>
      <trkpt lat="42.857880" lon="-2.681140"/>
      <trkpt lat="42.858440" lon="-2.681390"/>
      <trkpt lat="42.858590" lon="-2.681420"/>
      <trkpt lat="42.858620" lon="-2.681420"/>
      <trkpt lat="42.858790" lon="-2.681390"/>
      <trkpt lat="42.858860" lon="-2.681310"/>
      <trkpt lat="42.858930" lon="-2.681250"/>
      <trkpt lat="42.859010" lon="-2.681200"/>
      <trkpt lat="42.859070" lon="-2.681180"/>
      <trkpt lat="42.859130" lon="-2.681170"/>
      <trkpt lat="42.859180" lon="-2.681180"/>
      <trkpt lat="42.859260" lon="-2.681200"/>
      <trkpt lat="42.859340" lon="-2.681230"/>
      <trkpt lat="42.859420" lon="-2.681290"/>
      <trkpt lat="42.859460" lon="-2.681340"/>
      <trkpt lat="42.859510" lon="-2.681400"/>
      <trkpt lat="42.859540" lon="-2.681470"/>
      <trkpt lat="42.859570" lon="-2.681520"/>
      <trkpt lat="42.859600" lon="-2.681600"/>
      <trkpt lat="42.859660" lon="-2.681680"/>
      <trkpt lat="42.859730" lon="-2.681730"/>
      <trkpt lat="42.859870" lon="-2.681830"/>
      <trkpt lat="42.859990" lon="-2.681910"/>
      <trkpt lat="42.860160" lon="-2.682030"/>
      <trkpt lat="42.861050" lon="-2.682640"/>
      <trkpt lat="42.861640" lon="-2.683030"/>
      <trkpt lat="42.861710" lon="-2.683080"/>
      <trkpt lat="42.861790" lon="-2.683130"/>
      <trkpt lat="42.861850" lon="-2.683170"/>
      <trkpt lat="42.862310" lon="-2.683480"/>
      <trkpt lat="42.862440" lon="-2.683570"/>
      <trkpt lat="42.862660" lon="-2.683710"/>
      <trkpt lat="42.862950" lon="-2.683910"/>
      <trkpt lat="42.863100" lon="-2.684010"/>
      <trkpt lat="42.863400" lon="-2.684220"/>
      <trkpt lat="42.863480" lon="-2.684280"/>
      <trkpt lat="42.863530" lon="-2.684310"/>
      <trkpt lat="42.863560" lon="-2.684330"/>
      <trkpt lat="42.863600" lon="-2.684360"/>
      <trkpt lat="42.863750" lon="-2.684460"/>
      <trkpt lat="42.863770" lon="-2.684470"/>
      <trkpt lat="42.863790" lon="-2.684480"/>
      <trkpt lat="42.863890" lon="-2.684560"/>
      <trkpt lat="42.863970" lon="-2.684610"/>
      <trkpt lat="42.864000" lon="-2.684630"/>
      <trkpt lat="42.864040" lon="-2.684660"/>
      <trkpt lat="42.864160" lon="-2.684740"/>
      <trkpt lat="42.864600" lon="-2.685030"/>
      <trkpt lat="42.864740" lon="-2.685130"/>
      <trkpt lat="42.865020" lon="-2.685320"/>
      <trkpt lat="42.865130" lon="-2.685390"/>
      <trkpt lat="42.865190" lon="-2.685430"/>
      <trkpt lat="42.865210" lon="-2.685450"/>
      <trkpt lat="42.865500" lon="-2.685640"/>
      <trkpt lat="42.865760" lon="-2.685820"/>
      <trkpt lat="42.865820" lon="-2.685860"/>
      <trkpt lat="42.866240" lon="-2.686150"/>
      <trkpt lat="42.866430" lon="-2.686280"/>
      <trkpt lat="42.866640" lon="-2.686420"/>
      <trkpt lat="42.866670" lon="-2.686440"/>
      <trkpt lat="42.866690" lon="-2.686450"/>
      <trkpt lat="42.866810" lon="-2.686540"/>
      <trkpt lat="42.867030" lon="-2.686690"/>
      <trkpt lat="42.867170" lon="-2.686780"/>
      <trkpt lat="42.867200" lon="-2.686800"/>
      <trkpt lat="42.867460" lon="-2.686970"/>
      <trkpt lat="42.867860" lon="-2.687250"/>
      <trkpt lat="42.868360" lon="-2.687590"/>
      <trkpt lat="42.868410" lon="-2.687630"/>
      <trkpt lat="42.868450" lon="-2.687650"/>
      <trkpt lat="42.868650" lon="-2.687790"/>
      <trkpt lat="42.869870" lon="-2.688620"/>
      <trkpt lat="42.869910" lon="-2.688640"/>
      <trkpt lat="42.870000" lon="-2.688700"/>
      <trkpt lat="42.870590" lon="-2.689080"/>
      <trkpt lat="42.870940" lon="-2.689390"/>
      <trkpt lat="42.871260" lon="-2.689680"/>
      <trkpt lat="42.871640" lon="-2.690070"/>
      <trkpt lat="42.871840" lon="-2.690260"/>
      <trkpt lat="42.871970" lon="-2.690370"/>
      <trkpt lat="42.872100" lon="-2.690480"/>
      <trkpt lat="42.872210" lon="-2.690570"/>
      <trkpt lat="42.872420" lon="-2.690730"/>
      <trkpt lat="42.872790" lon="-2.690980"/>
      <trkpt lat="42.873090" lon="-2.691180"/>
      <trkpt lat="42.873590" lon="-2.691510"/>
      <trkpt lat="42.873970" lon="-2.691750"/>
      <trkpt lat="42.874520" lon="-2.692090"/>
      <trkpt lat="42.874750" lon="-2.692230"/>
      <trkpt lat="42.875180" lon="-2.692480"/>
      <trkpt lat="42.875380" lon="-2.692590"/>
      <trkpt lat="42.876090" lon="-2.692970"/>
      <trkpt lat="42.876610" lon="-2.693240"/>
      <trkpt lat="42.876850" lon="-2.693360"/>
      <trkpt lat="42.877120" lon="-2.693490"/>
      <trkpt lat="42.877850" lon="-2.693830"/>
      <trkpt lat="42.878860" lon="-2.694250"/>
      <trkpt lat="42.879800" lon="-2.694610"/>
      <trkpt lat="42.880410" lon="-2.694820"/>
      <trkpt lat="42.881130" lon="-2.695060"/>
      <trkpt lat="42.881970" lon="-2.695300"/>
      <trkpt lat="42.883390" lon="-2.695660"/>
      <trkpt lat="42.883560" lon="-2.695700"/>
      <trkpt lat="42.884410" lon="-2.695970"/>
      <trkpt lat="42.884540" lon="-2.696010"/>
      <trkpt lat="42.885520" lon="-2.696340"/>
      <trkpt lat="42.886380" lon="-2.696680"/>
      <trkpt lat="42.887160" lon="-2.697020"/>
      <trkpt lat="42.887680" lon="-2.697260"/>
      <trkpt lat="42.888090" lon="-2.697460"/>
      <trkpt lat="42.888730" lon="-2.697790"/>
      <trkpt lat="42.889390" lon="-2.698150"/>
      <trkpt lat="42.889900" lon="-2.698450"/>
      <trkpt lat="42.890570" lon="-2.698870"/>
      <trkpt lat="42.891070" lon="-2.699180"/>
      <trkpt lat="42.891730" lon="-2.699640"/>
      <trkpt lat="42.892130" lon="-2.699930"/>
      <trkpt lat="42.892840" lon="-2.700490"/>
      <trkpt lat="42.893380" lon="-2.700970"/>
      <trkpt lat="42.893470" lon="-2.701050"/>
      <trkpt lat="42.894710" lon="-2.702250"/>
      <trkpt lat="42.895920" lon="-2.703460"/>
      <trkpt lat="42.898850" lon="-2.706350"/>
      <trkpt lat="42.900550" lon="-2.708020"/>
      <trkpt lat="42.902200" lon="-2.709640"/>
      <trkpt lat="42.908440" lon="-2.715760"/>
      <trkpt lat="42.910510" lon="-2.717800"/>
      <trkpt lat="42.912220" lon="-2.719470"/>
      <trkpt lat="42.912660" lon="-2.719900"/>
      <trkpt lat="42.913040" lon="-2.720260"/>
      <trkpt lat="42.915920" lon="-2.722830"/>
      <trkpt lat="42.917660" lon="-2.724370"/>
      <trkpt lat="42.917700" lon="-2.724400"/>
      <trkpt lat="42.918870" lon="-2.725430"/>
      <trkpt lat="42.919550" lon="-2.726030"/>
      <trkpt lat="42.920880" lon="-2.727210"/>
      <trkpt lat="42.922100" lon="-2.728300"/>
      <trkpt lat="42.922810" lon="-2.728980"/>
      <trkpt lat="42.923360" lon="-2.729540"/>
      <trkpt lat="42.923880" lon="-2.730080"/>
      <trkpt lat="42.924780" lon="-2.731080"/>
      <trkpt lat="42.925530" lon="-2.731970"/>
      <trkpt lat="42.926700" lon="-2.733420"/>
      <trkpt lat="42.927080" lon="-2.733890"/>
      <trkpt lat="42.927640" lon="-2.734580"/>
      <trkpt lat="42.928150" lon="-2.735250"/>
      <trkpt lat="42.928340" lon="-2.735510"/>
      <trkpt lat="42.928580" lon="-2.735880"/>
      <trkpt lat="42.928780" lon="-2.736210"/>
      <trkpt lat="42.928960" lon="-2.736530"/>
      <trkpt lat="42.929170" lon="-2.736940"/>
      <trkpt lat="42.929380" lon="-2.737400"/>
      <trkpt lat="42.929590" lon="-2.737890"/>
      <trkpt lat="42.929790" lon="-2.738410"/>
      <trkpt lat="42.930210" lon="-2.739600"/>
      <trkpt lat="42.930430" lon="-2.740200"/>
      <trkpt lat="42.930630" lon="-2.740730"/>
      <trkpt lat="42.930870" lon="-2.741290"/>
      <trkpt lat="42.931120" lon="-2.741800"/>
      <trkpt lat="42.931310" lon="-2.742150"/>
      <trkpt lat="42.931520" lon="-2.742510"/>
      <trkpt lat="42.931870" lon="-2.743040"/>
      <trkpt lat="42.932100" lon="-2.743370"/>
      <trkpt lat="42.932440" lon="-2.743780"/>
      <trkpt lat="42.932660" lon="-2.744040"/>
      <trkpt lat="42.932900" lon="-2.744310"/>
      <trkpt lat="42.933910" lon="-2.745400"/>
      <trkpt lat="42.935120" lon="-2.746710"/>
      <trkpt lat="42.935840" lon="-2.747490"/>
      <trkpt lat="42.936100" lon="-2.747780"/>
      <trkpt lat="42.936430" lon="-2.748130"/>
      <trkpt lat="42.936660" lon="-2.748400"/>
      <trkpt lat="42.937000" lon="-2.748820"/>
      <trkpt lat="42.937280" lon="-2.749190"/>
      <trkpt lat="42.937580" lon="-2.749600"/>
      <trkpt lat="42.938180" lon="-2.750460"/>
      <trkpt lat="42.938690" lon="-2.751210"/>
      <trkpt lat="42.939190" lon="-2.751930"/>
      <trkpt lat="42.939530" lon="-2.752450"/>
      <trkpt lat="42.939870" lon="-2.752980"/>
      <trkpt lat="42.940040" lon="-2.753280"/>
      <trkpt lat="42.940220" lon="-2.753620"/>
      <trkpt lat="42.940400" lon="-2.754000"/>
      <trkpt lat="42.940590" lon="-2.754430"/>
      <trkpt lat="42.940810" lon="-2.755070"/>
      <trkpt lat="42.940890" lon="-2.755310"/>
      <trkpt lat="42.940970" lon="-2.755590"/>
      <trkpt lat="42.941060" lon="-2.755930"/>
      <trkpt lat="42.941130" lon="-2.756210"/>
      <trkpt lat="42.941240" lon="-2.756700"/>
      <trkpt lat="42.941330" lon="-2.757160"/>
      <trkpt lat="42.941400" lon="-2.757620"/>
      <trkpt lat="42.941470" lon="-2.758170"/>
      <trkpt lat="42.941510" lon="-2.758620"/>
      <trkpt lat="42.941540" lon="-2.759180"/>
      <trkpt lat="42.941560" lon="-2.759640"/>
      <trkpt lat="42.941560" lon="-2.760280"/>
      <trkpt lat="42.941540" lon="-2.760750"/>
      <trkpt lat="42.941500" lon="-2.761300"/>
      <trkpt lat="42.941460" lon="-2.761800"/>
      <trkpt lat="42.941390" lon="-2.762280"/>
      <trkpt lat="42.941330" lon="-2.762690"/>
      <trkpt lat="42.941260" lon="-2.763130"/>
      <trkpt lat="42.941150" lon="-2.763690"/>
      <trkpt lat="42.940940" lon="-2.764770"/>
      <trkpt lat="42.940810" lon="-2.765580"/>
      <trkpt lat="42.940740" lon="-2.766000"/>
      <trkpt lat="42.940690" lon="-2.766430"/>
      <trkpt lat="42.940660" lon="-2.766830"/>
      <trkpt lat="42.940630" lon="-2.767310"/>
      <trkpt lat="42.940620" lon="-2.767780"/>
      <trkpt lat="42.940620" lon="-2.768150"/>
      <trkpt lat="42.940630" lon="-2.768530"/>
      <trkpt lat="42.940660" lon="-2.768980"/>
      <trkpt lat="42.940700" lon="-2.769450"/>
      <trkpt lat="42.940740" lon="-2.769780"/>
      <trkpt lat="42.940840" lon="-2.770450"/>
      <trkpt lat="42.940940" lon="-2.770970"/>
      <trkpt lat="42.941030" lon="-2.771360"/>
      <trkpt lat="42.941120" lon="-2.771710"/>
      <trkpt lat="42.941240" lon="-2.772110"/>
      <trkpt lat="42.941440" lon="-2.772720"/>
      <trkpt lat="42.941640" lon="-2.773230"/>
      <trkpt lat="42.941860" lon="-2.773730"/>
      <trkpt lat="42.942140" lon="-2.774320"/>
      <trkpt lat="42.942590" lon="-2.775130"/>
      <trkpt lat="42.943050" lon="-2.775920"/>
      <trkpt lat="42.943310" lon="-2.776390"/>
      <trkpt lat="42.943670" lon="-2.777050"/>
      <trkpt lat="42.944030" lon="-2.777750"/>
      <trkpt lat="42.944250" lon="-2.778210"/>
      <trkpt lat="42.944470" lon="-2.778690"/>
      <trkpt lat="42.944690" lon="-2.779220"/>
      <trkpt lat="42.944870" lon="-2.779690"/>
      <trkpt lat="42.945100" lon="-2.780340"/>
      <trkpt lat="42.945240" lon="-2.780770"/>
      <trkpt lat="42.945430" lon="-2.781410"/>
      <trkpt lat="42.945660" lon="-2.782290"/>
      <trkpt lat="42.945820" lon="-2.783010"/>
      <trkpt lat="42.945980" lon="-2.783830"/>
      <trkpt lat="42.946120" lon="-2.784760"/>
      <trkpt lat="42.946190" lon="-2.785290"/>
      <trkpt lat="42.946280" lon="-2.786070"/>
      <trkpt lat="42.946340" lon="-2.786800"/>
      <trkpt lat="42.946450" lon="-2.787810"/>
      <trkpt lat="42.946620" lon="-2.789130"/>
      <trkpt lat="42.946760" lon="-2.789860"/>
      <trkpt lat="42.946910" lon="-2.790530"/>
      <trkpt lat="42.947050" lon="-2.791020"/>
      <trkpt lat="42.947190" lon="-2.791470"/>
      <trkpt lat="42.947410" lon="-2.792070"/>
      <trkpt lat="42.947700" lon="-2.792800"/>
      <trkpt lat="42.948010" lon="-2.793450"/>
      <trkpt lat="42.948430" lon="-2.794190"/>
      <trkpt lat="42.948990" lon="-2.795050"/>
      <trkpt lat="42.949590" lon="-2.795860"/>
      <trkpt lat="42.950180" lon="-2.796600"/>
      <trkpt lat="42.950780" lon="-2.797300"/>
      <trkpt lat="42.951430" lon="-2.798060"/>
      <trkpt lat="42.951890" lon="-2.798530"/>
      <trkpt lat="42.952380" lon="-2.799050"/>
      <trkpt lat="42.953270" lon="-2.799950"/>
      <trkpt lat="42.953830" lon="-2.800570"/>
      <trkpt lat="42.954650" lon="-2.801480"/>
      <trkpt lat="42.955160" lon="-2.802070"/>
      <trkpt lat="42.955860" lon="-2.802930"/>
      <trkpt lat="42.956710" lon="-2.804060"/>
      <trkpt lat="42.957140" lon="-2.804640"/>
      <trkpt lat="42.957280" lon="-2.804840"/>
      <trkpt lat="42.957910" lon="-2.805760"/>
      <trkpt lat="42.958480" lon="-2.806660"/>
      <trkpt lat="42.958790" lon="-2.807190"/>
      <trkpt lat="42.959100" lon="-2.807760"/>
      <trkpt lat="42.959370" lon="-2.808330"/>
      <trkpt lat="42.959680" lon="-2.809070"/>
      <trkpt lat="42.959830" lon="-2.809460"/>
      <trkpt lat="42.959950" lon="-2.809820"/>
      <trkpt lat="42.960110" lon="-2.810340"/>
      <trkpt lat="42.960270" lon="-2.810910"/>
      <trkpt lat="42.960400" lon="-2.811510"/>
      <trkpt lat="42.960520" lon="-2.812130"/>
      <trkpt lat="42.960610" lon="-2.812710"/>
      <trkpt lat="42.960690" lon="-2.813520"/>
      <trkpt lat="42.960760" lon="-2.814550"/>
      <trkpt lat="42.960840" lon="-2.816070"/>
      <trkpt lat="42.961010" lon="-2.818460"/>
      <trkpt lat="42.961250" lon="-2.820840"/>
      <trkpt lat="42.961330" lon="-2.821970"/>
      <trkpt lat="42.961380" lon="-2.822830"/>
      <trkpt lat="42.961400" lon="-2.823470"/>
      <trkpt lat="42.961410" lon="-2.824060"/>
      <trkpt lat="42.961400" lon="-2.824960"/>
      <trkpt lat="42.961370" lon="-2.826000"/>
      <trkpt lat="42.961340" lon="-2.826430"/>
      <trkpt lat="42.961310" lon="-2.826870"/>
      <trkpt lat="42.961190" lon="-2.828200"/>
      <trkpt lat="42.961040" lon="-2.829850"/>
      <trkpt lat="42.960890" lon="-2.831770"/>
      <trkpt lat="42.960860" lon="-2.832510"/>
      <trkpt lat="42.960840" lon="-2.833250"/>
      <trkpt lat="42.960840" lon="-2.833730"/>
      <trkpt lat="42.960850" lon="-2.834700"/>
      <trkpt lat="42.960880" lon="-2.835780"/>
      <trkpt lat="42.960940" lon="-2.837000"/>
      <trkpt lat="42.961030" lon="-2.838300"/>
      <trkpt lat="42.961160" lon="-2.839900"/>
      <trkpt lat="42.961330" lon="-2.841510"/>
      <trkpt lat="42.961470" lon="-2.842590"/>
      <trkpt lat="42.961610" lon="-2.843640"/>
      <trkpt lat="42.961760" lon="-2.844700"/>
      <trkpt lat="42.961950" lon="-2.845840"/>
      <trkpt lat="42.962230" lon="-2.847400"/>
      <trkpt lat="42.962530" lon="-2.848880"/>
      <trkpt lat="42.962720" lon="-2.849810"/>
      <trkpt lat="42.962880" lon="-2.850710"/>
      <trkpt lat="42.962950" lon="-2.851290"/>
      <trkpt lat="42.963030" lon="-2.852260"/>
      <trkpt lat="42.963050" lon="-2.852990"/>
      <trkpt lat="42.963050" lon="-2.853760"/>
      <trkpt lat="42.963030" lon="-2.854360"/>
      <trkpt lat="42.963000" lon="-2.855130"/>
      <trkpt lat="42.962970" lon="-2.855940"/>
      <trkpt lat="42.962920" lon="-2.857190"/>
      <trkpt lat="42.962910" lon="-2.857500"/>
      <trkpt lat="42.962860" lon="-2.858780"/>
      <trkpt lat="42.962820" lon="-2.860160"/>
      <trkpt lat="42.962740" lon="-2.862060"/>
      <trkpt lat="42.962740" lon="-2.862370"/>
      <trkpt lat="42.962750" lon="-2.862600"/>
      <trkpt lat="42.962770" lon="-2.862830"/>
      <trkpt lat="42.962810" lon="-2.863070"/>
      <trkpt lat="42.962840" lon="-2.863250"/>
      <trkpt lat="42.962890" lon="-2.863420"/>
      <trkpt lat="42.962970" lon="-2.863680"/>
      <trkpt lat="42.963060" lon="-2.863900"/>
      <trkpt lat="42.963160" lon="-2.864120"/>
      <trkpt lat="42.963270" lon="-2.864310"/>
      <trkpt lat="42.963510" lon="-2.864690"/>
      <trkpt lat="42.963770" lon="-2.865090"/>
      <trkpt lat="42.963950" lon="-2.865410"/>
      <trkpt lat="42.964070" lon="-2.865660"/>
      <trkpt lat="42.964190" lon="-2.865940"/>
      <trkpt lat="42.964310" lon="-2.866240"/>
      <trkpt lat="42.964390" lon="-2.866440"/>
      <trkpt lat="42.964430" lon="-2.866590"/>
      <trkpt lat="42.964460" lon="-2.866710"/>
      <trkpt lat="42.964510" lon="-2.866960"/>
      <trkpt lat="42.964530" lon="-2.867050"/>
      <trkpt lat="42.964540" lon="-2.867160"/>
      <trkpt lat="42.964590" lon="-2.867470"/>
      <trkpt lat="42.964640" lon="-2.867830"/>
      <trkpt lat="42.964680" lon="-2.868040"/>
      <trkpt lat="42.964730" lon="-2.868290"/>
      <trkpt lat="42.964820" lon="-2.868630"/>
      <trkpt lat="42.964900" lon="-2.868890"/>
      <trkpt lat="42.964970" lon="-2.869080"/>
      <trkpt lat="42.965040" lon="-2.869240"/>
      <trkpt lat="42.965120" lon="-2.869400"/>
      <trkpt lat="42.965210" lon="-2.869540"/>
      <trkpt lat="42.965320" lon="-2.869690"/>
      <trkpt lat="42.965450" lon="-2.869850"/>
      <trkpt lat="42.965890" lon="-2.870340"/>
      <trkpt lat="42.966140" lon="-2.870640"/>
      <trkpt lat="42.966250" lon="-2.870820"/>
      <trkpt lat="42.966380" lon="-2.871030"/>
      <trkpt lat="42.966550" lon="-2.871360"/>
      <trkpt lat="42.966790" lon="-2.871870"/>
      <trkpt lat="42.967050" lon="-2.872460"/>
      <trkpt lat="42.967310" lon="-2.873230"/>
      <trkpt lat="42.967510" lon="-2.873870"/>
      <trkpt lat="42.967680" lon="-2.874420"/>
      <trkpt lat="42.967850" lon="-2.874830"/>
      <trkpt lat="42.968060" lon="-2.875220"/>
      <trkpt lat="42.968290" lon="-2.875630"/>
      <trkpt lat="42.968430" lon="-2.875860"/>
      <trkpt lat="42.968580" lon="-2.876070"/>
      <trkpt lat="42.968920" lon="-2.876500"/>
      <trkpt lat="42.969130" lon="-2.876710"/>
      <trkpt lat="42.969320" lon="-2.876900"/>
      <trkpt lat="42.969520" lon="-2.877060"/>
      <trkpt lat="42.969900" lon="-2.877350"/>
      <trkpt lat="42.970330" lon="-2.877590"/>
      <trkpt lat="42.970720" lon="-2.877760"/>
      <trkpt lat="42.971120" lon="-2.877910"/>
      <trkpt lat="42.971460" lon="-2.877980"/>
      <trkpt lat="42.971890" lon="-2.878050"/>
      <trkpt lat="42.972310" lon="-2.878060"/>
      <trkpt lat="42.972800" lon="-2.878010"/>
      <trkpt lat="42.973210" lon="-2.877920"/>
      <trkpt lat="42.973610" lon="-2.877790"/>
      <trkpt lat="42.974070" lon="-2.877590"/>
      <trkpt lat="42.974520" lon="-2.877330"/>
      <trkpt lat="42.974930" lon="-2.877030"/>
      <trkpt lat="42.975300" lon="-2.876700"/>
      <trkpt lat="42.976100" lon="-2.875870"/>
      <trkpt lat="42.976490" lon="-2.875490"/>
      <trkpt lat="42.976910" lon="-2.875130"/>
      <trkpt lat="42.977780" lon="-2.874590"/>
      <trkpt lat="42.979180" lon="-2.873810"/>
      <trkpt lat="42.979520" lon="-2.873590"/>
      <trkpt lat="42.979840" lon="-2.873330"/>
      <trkpt lat="42.980360" lon="-2.872850"/>
      <trkpt lat="42.980780" lon="-2.872420"/>
      <trkpt lat="42.981180" lon="-2.871940"/>
      <trkpt lat="42.981700" lon="-2.871330"/>
      <trkpt lat="42.982020" lon="-2.870980"/>
      <trkpt lat="42.982360" lon="-2.870670"/>
      <trkpt lat="42.982570" lon="-2.870510"/>
      <trkpt lat="42.982780" lon="-2.870360"/>
      <trkpt lat="42.983090" lon="-2.870170"/>
      <trkpt lat="42.983460" lon="-2.869970"/>
      <trkpt lat="42.983750" lon="-2.869850"/>
      <trkpt lat="42.984160" lon="-2.869720"/>
      <trkpt lat="42.984460" lon="-2.869650"/>
      <trkpt lat="42.984940" lon="-2.869580"/>
      <trkpt lat="42.985320" lon="-2.869550"/>
      <trkpt lat="42.985780" lon="-2.869550"/>
      <trkpt lat="42.986030" lon="-2.869570"/>
      <trkpt lat="42.986290" lon="-2.869610"/>
      <trkpt lat="42.986750" lon="-2.869720"/>
      <trkpt lat="42.987190" lon="-2.869870"/>
      <trkpt lat="42.987540" lon="-2.870040"/>
      <trkpt lat="42.987910" lon="-2.870250"/>
      <trkpt lat="42.988330" lon="-2.870570"/>
      <trkpt lat="42.988650" lon="-2.870840"/>
      <trkpt lat="42.988870" lon="-2.871050"/>
      <trkpt lat="42.989150" lon="-2.871360"/>
      <trkpt lat="42.989460" lon="-2.871750"/>
      <trkpt lat="42.990090" lon="-2.872610"/>
      <trkpt lat="42.990410" lon="-2.873080"/>
      <trkpt lat="42.991040" lon="-2.873950"/>
      <trkpt lat="42.991550" lon="-2.874600"/>
      <trkpt lat="42.992040" lon="-2.875160"/>
      <trkpt lat="42.992660" lon="-2.875830"/>
      <trkpt lat="42.993470" lon="-2.876570"/>
      <trkpt lat="42.994380" lon="-2.877380"/>
      <trkpt lat="42.994690" lon="-2.877680"/>
      <trkpt lat="42.995060" lon="-2.878070"/>
      <trkpt lat="42.995370" lon="-2.878420"/>
      <trkpt lat="42.995750" lon="-2.878920"/>
      <trkpt lat="42.995980" lon="-2.879250"/>
      <trkpt lat="42.996230" lon="-2.879680"/>
      <trkpt lat="42.996450" lon="-2.880080"/>
      <trkpt lat="42.996740" lon="-2.880680"/>
      <trkpt lat="42.996920" lon="-2.881100"/>
      <trkpt lat="42.997150" lon="-2.881720"/>
      <trkpt lat="42.997760" lon="-2.883380"/>
      <trkpt lat="42.998020" lon="-2.884050"/>
      <trkpt lat="42.998210" lon="-2.884520"/>
      <trkpt lat="42.998440" lon="-2.885050"/>
      <trkpt lat="42.998680" lon="-2.885540"/>
      <trkpt lat="42.999140" lon="-2.886410"/>
      <trkpt lat="42.999690" lon="-2.887390"/>
      <trkpt lat="43.000170" lon="-2.888310"/>
      <trkpt lat="43.000500" lon="-2.888960"/>
      <trkpt lat="43.000860" lon="-2.889730"/>
      <trkpt lat="43.001380" lon="-2.890960"/>
      <trkpt lat="43.002110" lon="-2.892730"/>
      <trkpt lat="43.002310" lon="-2.893190"/>
      <trkpt lat="43.002510" lon="-2.893610"/>
      <trkpt lat="43.002790" lon="-2.894150"/>
      <trkpt lat="43.003090" lon="-2.894650"/>
      <trkpt lat="43.003440" lon="-2.895140"/>
      <trkpt lat="43.003790" lon="-2.895580"/>
      <trkpt lat="43.004180" lon="-2.895970"/>
      <trkpt lat="43.004560" lon="-2.896310"/>
      <trkpt lat="43.004970" lon="-2.896620"/>
      <trkpt lat="43.005390" lon="-2.896880"/>
      <trkpt lat="43.006280" lon="-2.897400"/>
      <trkpt lat="43.006690" lon="-2.897680"/>
      <trkpt lat="43.007280" lon="-2.898180"/>
      <trkpt lat="43.007500" lon="-2.898410"/>
      <trkpt lat="43.007760" lon="-2.898720"/>
      <trkpt lat="43.008060" lon="-2.899120"/>
      <trkpt lat="43.008390" lon="-2.899600"/>
      <trkpt lat="43.008990" lon="-2.900540"/>
      <trkpt lat="43.009230" lon="-2.900860"/>
      <trkpt lat="43.009510" lon="-2.901190"/>
      <trkpt lat="43.009700" lon="-2.901400"/>
      <trkpt lat="43.010350" lon="-2.901960"/>
      <trkpt lat="43.010610" lon="-2.902140"/>
      <trkpt lat="43.010970" lon="-2.902350"/>
      <trkpt lat="43.011330" lon="-2.902530"/>
      <trkpt lat="43.012050" lon="-2.902840"/>
      <trkpt lat="43.012390" lon="-2.902990"/>
      <trkpt lat="43.012660" lon="-2.903130"/>
      <trkpt lat="43.012830" lon="-2.903240"/>
      <trkpt lat="43.013140" lon="-2.903450"/>
      <trkpt lat="43.013340" lon="-2.903590"/>
      <trkpt lat="43.013580" lon="-2.903790"/>
      <trkpt lat="43.013920" lon="-2.904080"/>
      <trkpt lat="43.014230" lon="-2.904380"/>
      <trkpt lat="43.014770" lon="-2.904920"/>
      <trkpt lat="43.015380" lon="-2.905600"/>
      <trkpt lat="43.016040" lon="-2.906380"/>
      <trkpt lat="43.017610" lon="-2.908450"/>
      <trkpt lat="43.018440" lon="-2.909500"/>
      <trkpt lat="43.018900" lon="-2.910030"/>
      <trkpt lat="43.019400" lon="-2.910560"/>
      <trkpt lat="43.019870" lon="-2.911030"/>
      <trkpt lat="43.020370" lon="-2.911450"/>
      <trkpt lat="43.020760" lon="-2.911720"/>
      <trkpt lat="43.021110" lon="-2.911910"/>
      <trkpt lat="43.021380" lon="-2.912040"/>
      <trkpt lat="43.021710" lon="-2.912170"/>
      <trkpt lat="43.022000" lon="-2.912250"/>
      <trkpt lat="43.022450" lon="-2.912340"/>
      <trkpt lat="43.022890" lon="-2.912360"/>
      <trkpt lat="43.023300" lon="-2.912360"/>
      <trkpt lat="43.023740" lon="-2.912320"/>
      <trkpt lat="43.024280" lon="-2.912240"/>
      <trkpt lat="43.025390" lon="-2.911990"/>
      <trkpt lat="43.026380" lon="-2.911760"/>
      <trkpt lat="43.026930" lon="-2.911670"/>
      <trkpt lat="43.027440" lon="-2.911610"/>
      <trkpt lat="43.027880" lon="-2.911590"/>
      <trkpt lat="43.028280" lon="-2.911600"/>
      <trkpt lat="43.028750" lon="-2.911650"/>
      <trkpt lat="43.029170" lon="-2.911720"/>
      <trkpt lat="43.029720" lon="-2.911850"/>
      <trkpt lat="43.030290" lon="-2.912030"/>
      <trkpt lat="43.030860" lon="-2.912250"/>
      <trkpt lat="43.031820" lon="-2.912710"/>
      <trkpt lat="43.032690" lon="-2.913250"/>
      <trkpt lat="43.033410" lon="-2.913780"/>
      <trkpt lat="43.034050" lon="-2.914310"/>
      <trkpt lat="43.034670" lon="-2.914900"/>
      <trkpt lat="43.035240" lon="-2.915530"/>
      <trkpt lat="43.035660" lon="-2.916010"/>
      <trkpt lat="43.035940" lon="-2.916370"/>
      <trkpt lat="43.036280" lon="-2.916810"/>
      <trkpt lat="43.036510" lon="-2.917110"/>
      <trkpt lat="43.036960" lon="-2.917670"/>
      <trkpt lat="43.037410" lon="-2.918210"/>
      <trkpt lat="43.037830" lon="-2.918670"/>
      <trkpt lat="43.038230" lon="-2.919100"/>
      <trkpt lat="43.038670" lon="-2.919470"/>
      <trkpt lat="43.039120" lon="-2.919810"/>
      <trkpt lat="43.039470" lon="-2.920030"/>
      <trkpt lat="43.039780" lon="-2.920200"/>
      <trkpt lat="43.040350" lon="-2.920480"/>
      <trkpt lat="43.040890" lon="-2.920700"/>
      <trkpt lat="43.041410" lon="-2.920920"/>
      <trkpt lat="43.041900" lon="-2.921150"/>
      <trkpt lat="43.042310" lon="-2.921370"/>
      <trkpt lat="43.042870" lon="-2.921730"/>
      <trkpt lat="43.043060" lon="-2.921880"/>
      <trkpt lat="43.043520" lon="-2.922200"/>
      <trkpt lat="43.044030" lon="-2.922540"/>
      <trkpt lat="43.044500" lon="-2.922790"/>
      <trkpt lat="43.044940" lon="-2.923000"/>
      <trkpt lat="43.045630" lon="-2.923240"/>
      <trkpt lat="43.045950" lon="-2.923320"/>
      <trkpt lat="43.046650" lon="-2.923510"/>
      <trkpt lat="43.047110" lon="-2.923650"/>
      <trkpt lat="43.047520" lon="-2.923790"/>
      <trkpt lat="43.047890" lon="-2.923930"/>
      <trkpt lat="43.048220" lon="-2.924090"/>
      <trkpt lat="43.048630" lon="-2.924310"/>
      <trkpt lat="43.049040" lon="-2.924580"/>
      <trkpt lat="43.049490" lon="-2.924910"/>
      <trkpt lat="43.049890" lon="-2.925250"/>
      <trkpt lat="43.050280" lon="-2.925630"/>
      <trkpt lat="43.050650" lon="-2.926040"/>
      <trkpt lat="43.051200" lon="-2.926740"/>
      <trkpt lat="43.051350" lon="-2.926950"/>
      <trkpt lat="43.051510" lon="-2.927190"/>
      <trkpt lat="43.051840" lon="-2.927680"/>
      <trkpt lat="43.052350" lon="-2.928510"/>
      <trkpt lat="43.052810" lon="-2.929250"/>
      <trkpt lat="43.053140" lon="-2.929680"/>
      <trkpt lat="43.053570" lon="-2.930330"/>
      <trkpt lat="43.053880" lon="-2.930710"/>
      <trkpt lat="43.054160" lon="-2.931020"/>
      <trkpt lat="43.054420" lon="-2.931260"/>
      <trkpt lat="43.054690" lon="-2.931500"/>
      <trkpt lat="43.055160" lon="-2.931830"/>
      <trkpt lat="43.055480" lon="-2.932010"/>
      <trkpt lat="43.055800" lon="-2.932160"/>
      <trkpt lat="43.056200" lon="-2.932320"/>
      <trkpt lat="43.056600" lon="-2.932420"/>
      <trkpt lat="43.056930" lon="-2.932470"/>
      <trkpt lat="43.057230" lon="-2.932500"/>
      <trkpt lat="43.057490" lon="-2.932490"/>
      <trkpt lat="43.057720" lon="-2.932480"/>
      <trkpt lat="43.058130" lon="-2.932420"/>
      <trkpt lat="43.058510" lon="-2.932320"/>
      <trkpt lat="43.058920" lon="-2.932180"/>
      <trkpt lat="43.059260" lon="-2.932020"/>
      <trkpt lat="43.060270" lon="-2.931500"/>
      <trkpt lat="43.060730" lon="-2.931300"/>
      <trkpt lat="43.061180" lon="-2.931150"/>
      <trkpt lat="43.061650" lon="-2.931070"/>
      <trkpt lat="43.062120" lon="-2.931030"/>
      <trkpt lat="43.062700" lon="-2.931030"/>
      <trkpt lat="43.063340" lon="-2.931030"/>
      <trkpt lat="43.063680" lon="-2.931010"/>
      <trkpt lat="43.064040" lon="-2.930950"/>
      <trkpt lat="43.064410" lon="-2.930870"/>
      <trkpt lat="43.064840" lon="-2.930710"/>
      <trkpt lat="43.065240" lon="-2.930520"/>
      <trkpt lat="43.065600" lon="-2.930300"/>
      <trkpt lat="43.065990" lon="-2.930020"/>
      <trkpt lat="43.066320" lon="-2.929730"/>
      <trkpt lat="43.066640" lon="-2.929400"/>
      <trkpt lat="43.066980" lon="-2.928990"/>
      <trkpt lat="43.067220" lon="-2.928650"/>
      <trkpt lat="43.067590" lon="-2.928040"/>
      <trkpt lat="43.068330" lon="-2.926770"/>
      <trkpt lat="43.068570" lon="-2.926400"/>
      <trkpt lat="43.068810" lon="-2.926040"/>
      <trkpt lat="43.069120" lon="-2.925650"/>
      <trkpt lat="43.069340" lon="-2.925400"/>
      <trkpt lat="43.069710" lon="-2.925050"/>
      <trkpt lat="43.070100" lon="-2.924730"/>
      <trkpt lat="43.070540" lon="-2.924390"/>
      <trkpt lat="43.071070" lon="-2.924010"/>
      <trkpt lat="43.071390" lon="-2.923760"/>
      <trkpt lat="43.071690" lon="-2.923500"/>
      <trkpt lat="43.071950" lon="-2.923250"/>
      <trkpt lat="43.072210" lon="-2.922960"/>
      <trkpt lat="43.072660" lon="-2.922410"/>
      <trkpt lat="43.073100" lon="-2.921830"/>
      <trkpt lat="43.073480" lon="-2.921370"/>
      <trkpt lat="43.073780" lon="-2.921070"/>
      <trkpt lat="43.074100" lon="-2.920790"/>
      <trkpt lat="43.074480" lon="-2.920500"/>
      <trkpt lat="43.075190" lon="-2.919980"/>
      <trkpt lat="43.075600" lon="-2.919650"/>
      <trkpt lat="43.075920" lon="-2.919330"/>
      <trkpt lat="43.076220" lon="-2.919010"/>
      <trkpt lat="43.076720" lon="-2.918370"/>
      <trkpt lat="43.077250" lon="-2.917680"/>
      <trkpt lat="43.077570" lon="-2.917330"/>
      <trkpt lat="43.077850" lon="-2.917060"/>
      <trkpt lat="43.078110" lon="-2.916830"/>
      <trkpt lat="43.078480" lon="-2.916560"/>
      <trkpt lat="43.078710" lon="-2.916410"/>
      <trkpt lat="43.078950" lon="-2.916280"/>
      <trkpt lat="43.079230" lon="-2.916140"/>
      <trkpt lat="43.079880" lon="-2.915880"/>
      <trkpt lat="43.080510" lon="-2.915640"/>
      <trkpt lat="43.080840" lon="-2.915500"/>
      <trkpt lat="43.081180" lon="-2.915350"/>
      <trkpt lat="43.082510" lon="-2.914720"/>
      <trkpt lat="43.082850" lon="-2.914580"/>
      <trkpt lat="43.083140" lon="-2.914500"/>
      <trkpt lat="43.083570" lon="-2.914430"/>
      <trkpt lat="43.083890" lon="-2.914380"/>
      <trkpt lat="43.084290" lon="-2.914380"/>
      <trkpt lat="43.084690" lon="-2.914410"/>
      <trkpt lat="43.085130" lon="-2.914490"/>
      <trkpt lat="43.085520" lon="-2.914620"/>
      <trkpt lat="43.085980" lon="-2.914790"/>
      <trkpt lat="43.086290" lon="-2.914950"/>
      <trkpt lat="43.086610" lon="-2.915120"/>
      <trkpt lat="43.087660" lon="-2.915780"/>
      <trkpt lat="43.088570" lon="-2.916380"/>
      <trkpt lat="43.089230" lon="-2.916770"/>
      <trkpt lat="43.089820" lon="-2.917100"/>
      <trkpt lat="43.090200" lon="-2.917310"/>
      <trkpt lat="43.090600" lon="-2.917510"/>
      <trkpt lat="43.090920" lon="-2.917650"/>
      <trkpt lat="43.091190" lon="-2.917750"/>
      <trkpt lat="43.091380" lon="-2.917820"/>
      <trkpt lat="43.091680" lon="-2.917920"/>
      <trkpt lat="43.092320" lon="-2.918100"/>
      <trkpt lat="43.092960" lon="-2.918250"/>
      <trkpt lat="43.093530" lon="-2.918360"/>
      <trkpt lat="43.093980" lon="-2.918410"/>
      <trkpt lat="43.094610" lon="-2.918460"/>
      <trkpt lat="43.095230" lon="-2.918470"/>
      <trkpt lat="43.095710" lon="-2.918450"/>
      <trkpt lat="43.096200" lon="-2.918410"/>
      <trkpt lat="43.096610" lon="-2.918350"/>
      <trkpt lat="43.097180" lon="-2.918260"/>
      <trkpt lat="43.097790" lon="-2.918120"/>
      <trkpt lat="43.098260" lon="-2.917970"/>
      <trkpt lat="43.098720" lon="-2.917800"/>
      <trkpt lat="43.099120" lon="-2.917610"/>
      <trkpt lat="43.099570" lon="-2.917380"/>
      <trkpt lat="43.099970" lon="-2.917140"/>
      <trkpt lat="43.100760" lon="-2.916630"/>
      <trkpt lat="43.101420" lon="-2.916220"/>
      <trkpt lat="43.101800" lon="-2.916010"/>
      <trkpt lat="43.102210" lon="-2.915820"/>
      <trkpt lat="43.102600" lon="-2.915670"/>
      <trkpt lat="43.103010" lon="-2.915530"/>
      <trkpt lat="43.103400" lon="-2.915430"/>
      <trkpt lat="43.103780" lon="-2.915360"/>
      <trkpt lat="43.104140" lon="-2.915310"/>
      <trkpt lat="43.104500" lon="-2.915280"/>
      <trkpt lat="43.105120" lon="-2.915260"/>
      <trkpt lat="43.105820" lon="-2.915280"/>
      <trkpt lat="43.106540" lon="-2.915300"/>
      <trkpt lat="43.107170" lon="-2.915270"/>
      <trkpt lat="43.107640" lon="-2.915210"/>
      <trkpt lat="43.108050" lon="-2.915140"/>
      <trkpt lat="43.108480" lon="-2.915040"/>
      <trkpt lat="43.108960" lon="-2.914900"/>
      <trkpt lat="43.109790" lon="-2.914650"/>
      <trkpt lat="43.110640" lon="-2.914420"/>
      <trkpt lat="43.111630" lon="-2.914240"/>
      <trkpt lat="43.112090" lon="-2.914200"/>
      <trkpt lat="43.112550" lon="-2.914180"/>
      <trkpt lat="43.113070" lon="-2.914190"/>
      <trkpt lat="43.113400" lon="-2.914220"/>
      <trkpt lat="43.113700" lon="-2.914250"/>
      <trkpt lat="43.114190" lon="-2.914330"/>
      <trkpt lat="43.114830" lon="-2.914460"/>
      <trkpt lat="43.115300" lon="-2.914590"/>
      <trkpt lat="43.116050" lon="-2.914850"/>
      <trkpt lat="43.117360" lon="-2.915350"/>
      <trkpt lat="43.117720" lon="-2.915480"/>
      <trkpt lat="43.118140" lon="-2.915590"/>
      <trkpt lat="43.118550" lon="-2.915680"/>
      <trkpt lat="43.118930" lon="-2.915740"/>
      <trkpt lat="43.119550" lon="-2.915820"/>
      <trkpt lat="43.120070" lon="-2.915900"/>
      <trkpt lat="43.120540" lon="-2.915990"/>
      <trkpt lat="43.121000" lon="-2.916120"/>
      <trkpt lat="43.121410" lon="-2.916250"/>
      <trkpt lat="43.121760" lon="-2.916390"/>
      <trkpt lat="43.122100" lon="-2.916540"/>
      <trkpt lat="43.122390" lon="-2.916700"/>
      <trkpt lat="43.122750" lon="-2.916900"/>
      <trkpt lat="43.123100" lon="-2.917130"/>
      <trkpt lat="43.123490" lon="-2.917410"/>
      <trkpt lat="43.123880" lon="-2.917730"/>
      <trkpt lat="43.124220" lon="-2.918030"/>
      <trkpt lat="43.124590" lon="-2.918420"/>
      <trkpt lat="43.124880" lon="-2.918730"/>
      <trkpt lat="43.125170" lon="-2.919070"/>
      <trkpt lat="43.125550" lon="-2.919570"/>
      <trkpt lat="43.125860" lon="-2.920030"/>
      <trkpt lat="43.126650" lon="-2.921260"/>
      <trkpt lat="43.126890" lon="-2.921610"/>
      <trkpt lat="43.127150" lon="-2.921990"/>
      <trkpt lat="43.127410" lon="-2.922320"/>
      <trkpt lat="43.127670" lon="-2.922640"/>
      <trkpt lat="43.128610" lon="-2.923660"/>
      <trkpt lat="43.129130" lon="-2.924230"/>
      <trkpt lat="43.129570" lon="-2.924760"/>
      <trkpt lat="43.129790" lon="-2.925060"/>
      <trkpt lat="43.130010" lon="-2.925380"/>
      <trkpt lat="43.130250" lon="-2.925760"/>
      <trkpt lat="43.130480" lon="-2.926170"/>
      <trkpt lat="43.130750" lon="-2.926670"/>
      <trkpt lat="43.131020" lon="-2.927230"/>
      <trkpt lat="43.131590" lon="-2.928490"/>
      <trkpt lat="43.131870" lon="-2.929080"/>
      <trkpt lat="43.132020" lon="-2.929380"/>
      <trkpt lat="43.132240" lon="-2.929770"/>
      <trkpt lat="43.132430" lon="-2.930080"/>
      <trkpt lat="43.132810" lon="-2.930650"/>
      <trkpt lat="43.133040" lon="-2.930980"/>
      <trkpt lat="43.133250" lon="-2.931240"/>
      <trkpt lat="43.133650" lon="-2.931710"/>
      <trkpt lat="43.134140" lon="-2.932210"/>
      <trkpt lat="43.134640" lon="-2.932650"/>
      <trkpt lat="43.134910" lon="-2.932870"/>
      <trkpt lat="43.135200" lon="-2.933080"/>
      <trkpt lat="43.135650" lon="-2.933380"/>
      <trkpt lat="43.136140" lon="-2.933660"/>
      <trkpt lat="43.137110" lon="-2.934200"/>
      <trkpt lat="43.137520" lon="-2.934410"/>
      <trkpt lat="43.137910" lon="-2.934630"/>
      <trkpt lat="43.138260" lon="-2.934750"/>
      <trkpt lat="43.139130" lon="-2.935150"/>
      <trkpt lat="43.139210" lon="-2.935180"/>
      <trkpt lat="43.139270" lon="-2.935210"/>
      <trkpt lat="43.140110" lon="-2.935630"/>
      <trkpt lat="43.140680" lon="-2.935940"/>
      <trkpt lat="43.142010" lon="-2.936510"/>
      <trkpt lat="43.142830" lon="-2.936810"/>
      <trkpt lat="43.143670" lon="-2.937090"/>
      <trkpt lat="43.144500" lon="-2.937360"/>
      <trkpt lat="43.145870" lon="-2.937790"/>
      <trkpt lat="43.146550" lon="-2.937970"/>
      <trkpt lat="43.147280" lon="-2.938150"/>
      <trkpt lat="43.147740" lon="-2.938250"/>
      <trkpt lat="43.148230" lon="-2.938320"/>
      <trkpt lat="43.148690" lon="-2.938360"/>
      <trkpt lat="43.149200" lon="-2.938360"/>
      <trkpt lat="43.149610" lon="-2.938340"/>
      <trkpt lat="43.150110" lon="-2.938270"/>
      <trkpt lat="43.150540" lon="-2.938180"/>
      <trkpt lat="43.151300" lon="-2.937930"/>
      <trkpt lat="43.151550" lon="-2.937850"/>
      <trkpt lat="43.151760" lon="-2.937760"/>
      <trkpt lat="43.151980" lon="-2.937650"/>
      <trkpt lat="43.152430" lon="-2.937410"/>
      <trkpt lat="43.152880" lon="-2.937130"/>
      <trkpt lat="43.153180" lon="-2.936920"/>
      <trkpt lat="43.153540" lon="-2.936640"/>
      <trkpt lat="43.153740" lon="-2.936470"/>
      <trkpt lat="43.153920" lon="-2.936290"/>
      <trkpt lat="43.154150" lon="-2.936050"/>
      <trkpt lat="43.154690" lon="-2.935460"/>
      <trkpt lat="43.154860" lon="-2.935240"/>
      <trkpt lat="43.155040" lon="-2.934980"/>
      <trkpt lat="43.155340" lon="-2.934470"/>
      <trkpt lat="43.155590" lon="-2.934050"/>
      <trkpt lat="43.155760" lon="-2.933710"/>
      <trkpt lat="43.155890" lon="-2.933410"/>
      <trkpt lat="43.156060" lon="-2.933010"/>
      <trkpt lat="43.156230" lon="-2.932580"/>
      <trkpt lat="43.156350" lon="-2.932220"/>
      <trkpt lat="43.156600" lon="-2.931450"/>
      <trkpt lat="43.157130" lon="-2.929830"/>
      <trkpt lat="43.157300" lon="-2.929360"/>
      <trkpt lat="43.157340" lon="-2.929280"/>
      <trkpt lat="43.157630" lon="-2.928610"/>
      <trkpt lat="43.157790" lon="-2.928280"/>
      <trkpt lat="43.157990" lon="-2.927930"/>
      <trkpt lat="43.158220" lon="-2.927560"/>
      <trkpt lat="43.158600" lon="-2.926970"/>
      <trkpt lat="43.158940" lon="-2.926510"/>
      <trkpt lat="43.159190" lon="-2.926190"/>
      <trkpt lat="43.159650" lon="-2.925660"/>
      <trkpt lat="43.160060" lon="-2.925220"/>
      <trkpt lat="43.160470" lon="-2.924790"/>
      <trkpt lat="43.160870" lon="-2.924330"/>
      <trkpt lat="43.161220" lon="-2.923910"/>
      <trkpt lat="43.161520" lon="-2.923530"/>
      <trkpt lat="43.161780" lon="-2.923160"/>
      <trkpt lat="43.162020" lon="-2.922780"/>
      <trkpt lat="43.162380" lon="-2.922210"/>
      <trkpt lat="43.162920" lon="-2.921360"/>
      <trkpt lat="43.163370" lon="-2.920750"/>
      <trkpt lat="43.163710" lon="-2.920340"/>
      <trkpt lat="43.164530" lon="-2.919450"/>
      <trkpt lat="43.165940" lon="-2.918420"/>
      <trkpt lat="43.166480" lon="-2.918140"/>
      <trkpt lat="43.167100" lon="-2.917890"/>
      <trkpt lat="43.167290" lon="-2.917840"/>
      <trkpt lat="43.168310" lon="-2.917570"/>
      <trkpt lat="43.168940" lon="-2.917370"/>
      <trkpt lat="43.169460" lon="-2.917150"/>
      <trkpt lat="43.170210" lon="-2.916750"/>
      <trkpt lat="43.170860" lon="-2.916290"/>
      <trkpt lat="43.171210" lon="-2.916000"/>
      <trkpt lat="43.171480" lon="-2.915760"/>
      <trkpt lat="43.171840" lon="-2.915380"/>
      <trkpt lat="43.172120" lon="-2.915060"/>
      <trkpt lat="43.172570" lon="-2.914500"/>
      <trkpt lat="43.172780" lon="-2.914210"/>
      <trkpt lat="43.172970" lon="-2.913910"/>
      <trkpt lat="43.173170" lon="-2.913570"/>
      <trkpt lat="43.173350" lon="-2.913230"/>
      <trkpt lat="43.173690" lon="-2.912560"/>
      <trkpt lat="43.173840" lon="-2.912220"/>
      <trkpt lat="43.173960" lon="-2.911870"/>
      <trkpt lat="43.174160" lon="-2.911340"/>
      <trkpt lat="43.174330" lon="-2.910760"/>
      <trkpt lat="43.174450" lon="-2.910320"/>
      <trkpt lat="43.174600" lon="-2.909690"/>
      <trkpt lat="43.174700" lon="-2.909150"/>
      <trkpt lat="43.174890" lon="-2.907890"/>
      <trkpt lat="43.175010" lon="-2.907180"/>
      <trkpt lat="43.175120" lon="-2.906670"/>
      <trkpt lat="43.175270" lon="-2.906020"/>
      <trkpt lat="43.175420" lon="-2.905450"/>
      <trkpt lat="43.175600" lon="-2.904880"/>
      <trkpt lat="43.176110" lon="-2.903600"/>
      <trkpt lat="43.176330" lon="-2.903130"/>
      <trkpt lat="43.176680" lon="-2.902470"/>
      <trkpt lat="43.177060" lon="-2.901860"/>
      <trkpt lat="43.177380" lon="-2.901420"/>
      <trkpt lat="43.177760" lon="-2.900950"/>
      <trkpt lat="43.178230" lon="-2.900430"/>
      <trkpt lat="43.178370" lon="-2.900280"/>
      <trkpt lat="43.178750" lon="-2.899910"/>
      <trkpt lat="43.179020" lon="-2.899680"/>
      <trkpt lat="43.179160" lon="-2.899570"/>
      <trkpt lat="43.179330" lon="-2.899430"/>
      <trkpt lat="43.179610" lon="-2.899210"/>
      <trkpt lat="43.180370" lon="-2.898640"/>
      <trkpt lat="43.180840" lon="-2.898250"/>
      <trkpt lat="43.181200" lon="-2.897920"/>
      <trkpt lat="43.181300" lon="-2.897830"/>
      <trkpt lat="43.181670" lon="-2.897450"/>
      <trkpt lat="43.181850" lon="-2.897250"/>
      <trkpt lat="43.181970" lon="-2.897120"/>
      <trkpt lat="43.182200" lon="-2.896880"/>
      <trkpt lat="43.182450" lon="-2.896600"/>
      <trkpt lat="43.182670" lon="-2.896360"/>
      <trkpt lat="43.183050" lon="-2.895980"/>
      <trkpt lat="43.183280" lon="-2.895790"/>
      <trkpt lat="43.183640" lon="-2.895520"/>
      <trkpt lat="43.184220" lon="-2.895150"/>
      <trkpt lat="43.184760" lon="-2.894890"/>
      <trkpt lat="43.185070" lon="-2.894780"/>
      <trkpt lat="43.185820" lon="-2.894560"/>
      <trkpt lat="43.186520" lon="-2.894450"/>
      <trkpt lat="43.187030" lon="-2.894420"/>
      <trkpt lat="43.187580" lon="-2.894430"/>
      <trkpt lat="43.187990" lon="-2.894480"/>
      <trkpt lat="43.188350" lon="-2.894570"/>
      <trkpt lat="43.188650" lon="-2.894660"/>
      <trkpt lat="43.189380" lon="-2.894940"/>
      <trkpt lat="43.190890" lon="-2.895780"/>
      <trkpt lat="43.191100" lon="-2.895880"/>
      <trkpt lat="43.191670" lon="-2.896110"/>
      <trkpt lat="43.192550" lon="-2.896370"/>
      <trkpt lat="43.193540" lon="-2.896670"/>
      <trkpt lat="43.194210" lon="-2.896810"/>
      <trkpt lat="43.194500" lon="-2.896880"/>
      <trkpt lat="43.195280" lon="-2.896910"/>
      <trkpt lat="43.195970" lon="-2.896830"/>
      <trkpt lat="43.196220" lon="-2.896780"/>
      <trkpt lat="43.196390" lon="-2.896740"/>
      <trkpt lat="43.196570" lon="-2.896690"/>
      <trkpt lat="43.196810" lon="-2.896620"/>
      <trkpt lat="43.197020" lon="-2.896540"/>
      <trkpt lat="43.197200" lon="-2.896470"/>
      <trkpt lat="43.197390" lon="-2.896390"/>
      <trkpt lat="43.197560" lon="-2.896300"/>
      <trkpt lat="43.198000" lon="-2.896060"/>
      <trkpt lat="43.198240" lon="-2.895910"/>
      <trkpt lat="43.198500" lon="-2.895720"/>
      <trkpt lat="43.198770" lon="-2.895510"/>
      <trkpt lat="43.199180" lon="-2.895200"/>
      <trkpt lat="43.199670" lon="-2.894730"/>
      <trkpt lat="43.200070" lon="-2.894350"/>
      <trkpt lat="43.200820" lon="-2.893710"/>
      <trkpt lat="43.201390" lon="-2.893340"/>
      <trkpt lat="43.201750" lon="-2.893140"/>
      <trkpt lat="43.202120" lon="-2.892970"/>
      <trkpt lat="43.202350" lon="-2.892860"/>
      <trkpt lat="43.202650" lon="-2.892760"/>
      <trkpt lat="43.202810" lon="-2.892710"/>
      <trkpt lat="43.203260" lon="-2.892590"/>
      <trkpt lat="43.203620" lon="-2.892540"/>
      <trkpt lat="43.203920" lon="-2.892510"/>
      <trkpt lat="43.204280" lon="-2.892500"/>
      <trkpt lat="43.204630" lon="-2.892500"/>
      <trkpt lat="43.204850" lon="-2.892530"/>
      <trkpt lat="43.205090" lon="-2.892570"/>
      <trkpt lat="43.205280" lon="-2.892600"/>
      <trkpt lat="43.205450" lon="-2.892630"/>
      <trkpt lat="43.205620" lon="-2.892670"/>
      <trkpt lat="43.205790" lon="-2.892730"/>
      <trkpt lat="43.206030" lon="-2.892810"/>
      <trkpt lat="43.206290" lon="-2.892900"/>
      <trkpt lat="43.206550" lon="-2.893000"/>
      <trkpt lat="43.206850" lon="-2.893160"/>
      <trkpt lat="43.207040" lon="-2.893260"/>
      <trkpt lat="43.207330" lon="-2.893440"/>
      <trkpt lat="43.207540" lon="-2.893570"/>
      <trkpt lat="43.207870" lon="-2.893800"/>
      <trkpt lat="43.208330" lon="-2.894100"/>
      <trkpt lat="43.208640" lon="-2.894310"/>
      <trkpt lat="43.208870" lon="-2.894440"/>
      <trkpt lat="43.209040" lon="-2.894530"/>
      <trkpt lat="43.209250" lon="-2.894630"/>
      <trkpt lat="43.209550" lon="-2.894760"/>
      <trkpt lat="43.209850" lon="-2.894860"/>
      <trkpt lat="43.210100" lon="-2.894930"/>
      <trkpt lat="43.210290" lon="-2.894960"/>
      <trkpt lat="43.210550" lon="-2.895010"/>
      <trkpt lat="43.210910" lon="-2.895050"/>
      <trkpt lat="43.211660" lon="-2.895120"/>
      <trkpt lat="43.211920" lon="-2.895160"/>
      <trkpt lat="43.212110" lon="-2.895190"/>
      <trkpt lat="43.212280" lon="-2.895230"/>
      <trkpt lat="43.212410" lon="-2.895270"/>
      <trkpt lat="43.212610" lon="-2.895340"/>
      <trkpt lat="43.212830" lon="-2.895420"/>
      <trkpt lat="43.213120" lon="-2.895550"/>
      <trkpt lat="43.213340" lon="-2.895680"/>
      <trkpt lat="43.213570" lon="-2.895820"/>
      <trkpt lat="43.213770" lon="-2.895960"/>
      <trkpt lat="43.213950" lon="-2.896080"/>
      <trkpt lat="43.214100" lon="-2.896200"/>
      <trkpt lat="43.214310" lon="-2.896380"/>
      <trkpt lat="43.214520" lon="-2.896590"/>
      <trkpt lat="43.214770" lon="-2.896850"/>
      <trkpt lat="43.214890" lon="-2.897010"/>
      <trkpt lat="43.215080" lon="-2.897240"/>
      <trkpt lat="43.215230" lon="-2.897440"/>
      <trkpt lat="43.215390" lon="-2.897680"/>
      <trkpt lat="43.215560" lon="-2.897960"/>
      <trkpt lat="43.215750" lon="-2.898310"/>
      <trkpt lat="43.215840" lon="-2.898490"/>
      <trkpt lat="43.215910" lon="-2.898640"/>
      <trkpt lat="43.216000" lon="-2.898840"/>
      <trkpt lat="43.216060" lon="-2.899010"/>
      <trkpt lat="43.216120" lon="-2.899150"/>
      <trkpt lat="43.216220" lon="-2.899450"/>
      <trkpt lat="43.216300" lon="-2.899670"/>
      <trkpt lat="43.216360" lon="-2.899880"/>
      <trkpt lat="43.216420" lon="-2.900110"/>
      <trkpt lat="43.216470" lon="-2.900280"/>
      <trkpt lat="43.216510" lon="-2.900460"/>
      <trkpt lat="43.216560" lon="-2.900700"/>
      <trkpt lat="43.216590" lon="-2.900870"/>
      <trkpt lat="43.216620" lon="-2.901040"/>
      <trkpt lat="43.216680" lon="-2.901380"/>
      <trkpt lat="43.216740" lon="-2.901740"/>
      <trkpt lat="43.216870" lon="-2.902590"/>
      <trkpt lat="43.216930" lon="-2.902980"/>
      <trkpt lat="43.217000" lon="-2.903390"/>
      <trkpt lat="43.217040" lon="-2.903630"/>
      <trkpt lat="43.217070" lon="-2.903800"/>
      <trkpt lat="43.217140" lon="-2.904170"/>
      <trkpt lat="43.217190" lon="-2.904400"/>
      <trkpt lat="43.217240" lon="-2.904590"/>
      <trkpt lat="43.217330" lon="-2.904950"/>
      <trkpt lat="43.217380" lon="-2.905160"/>
      <trkpt lat="43.217520" lon="-2.905630"/>
      <trkpt lat="43.217630" lon="-2.905950"/>
      <trkpt lat="43.217750" lon="-2.906290"/>
      <trkpt lat="43.217830" lon="-2.906510"/>
      <trkpt lat="43.217950" lon="-2.906820"/>
      <trkpt lat="43.218110" lon="-2.907190"/>
      <trkpt lat="43.218190" lon="-2.907370"/>
      <trkpt lat="43.218280" lon="-2.907560"/>
      <trkpt lat="43.218430" lon="-2.907860"/>
      <trkpt lat="43.218540" lon="-2.908060"/>
      <trkpt lat="43.218700" lon="-2.908360"/>
      <trkpt lat="43.218880" lon="-2.908710"/>
      <trkpt lat="43.219080" lon="-2.909030"/>
      <trkpt lat="43.219300" lon="-2.909370"/>
      <trkpt lat="43.219540" lon="-2.909740"/>
      <trkpt lat="43.219720" lon="-2.910000"/>
      <trkpt lat="43.220050" lon="-2.910470"/>
      <trkpt lat="43.220300" lon="-2.910790"/>
      <trkpt lat="43.220470" lon="-2.911020"/>
      <trkpt lat="43.220700" lon="-2.911320"/>
      <trkpt lat="43.221570" lon="-2.912390"/>
      <trkpt lat="43.221990" lon="-2.912890"/>
      <trkpt lat="43.222450" lon="-2.913400"/>
      <trkpt lat="43.222700" lon="-2.913670"/>
      <trkpt lat="43.222950" lon="-2.913930"/>
      <trkpt lat="43.223200" lon="-2.914180"/>
      <trkpt lat="43.223440" lon="-2.914400"/>
      <trkpt lat="43.223670" lon="-2.914580"/>
      <trkpt lat="43.223850" lon="-2.914710"/>
      <trkpt lat="43.224000" lon="-2.914820"/>
      <trkpt lat="43.224280" lon="-2.915000"/>
      <trkpt lat="43.224570" lon="-2.915150"/>
      <trkpt lat="43.224800" lon="-2.915250"/>
      <trkpt lat="43.225040" lon="-2.915340"/>
      <trkpt lat="43.225110" lon="-2.915360"/>
      <trkpt lat="43.225390" lon="-2.915440"/>
      <trkpt lat="43.225760" lon="-2.915510"/>
      <trkpt lat="43.226010" lon="-2.915540"/>
      <trkpt lat="43.226160" lon="-2.915550"/>
      <trkpt lat="43.226320" lon="-2.915550"/>
      <trkpt lat="43.226470" lon="-2.915550"/>
      <trkpt lat="43.226650" lon="-2.915540"/>
      <trkpt lat="43.227090" lon="-2.915480"/>
      <trkpt lat="43.227260" lon="-2.915440"/>
      <trkpt lat="43.227590" lon="-2.915350"/>
      <trkpt lat="43.227990" lon="-2.915190"/>
      <trkpt lat="43.228280" lon="-2.915060"/>
      <trkpt lat="43.228850" lon="-2.914780"/>
      <trkpt lat="43.229150" lon="-2.914640"/>
      <trkpt lat="43.229530" lon="-2.914500"/>
      <trkpt lat="43.229730" lon="-2.914430"/>
      <trkpt lat="43.229940" lon="-2.914380"/>
      <trkpt lat="43.230200" lon="-2.914340"/>
      <trkpt lat="43.230350" lon="-2.914320"/>
      <trkpt lat="43.230520" lon="-2.914310"/>
      <trkpt lat="43.230730" lon="-2.914310"/>
      <trkpt lat="43.230960" lon="-2.914330"/>
      <trkpt lat="43.231090" lon="-2.914350"/>
      <trkpt lat="43.231400" lon="-2.914400"/>
      <trkpt lat="43.231570" lon="-2.914440"/>
      <trkpt lat="43.231800" lon="-2.914520"/>
      <trkpt lat="43.231930" lon="-2.914570"/>
      <trkpt lat="43.232150" lon="-2.914670"/>
      <trkpt lat="43.232490" lon="-2.914850"/>
      <trkpt lat="43.232830" lon="-2.915070"/>
      <trkpt lat="43.233030" lon="-2.915230"/>
      <trkpt lat="43.233380" lon="-2.915520"/>
      <trkpt lat="43.233860" lon="-2.916000"/>
      <trkpt lat="43.234140" lon="-2.916300"/>
      <trkpt lat="43.234420" lon="-2.916630"/>
      <trkpt lat="43.234720" lon="-2.917080"/>
      <trkpt lat="43.234990" lon="-2.917550"/>
      <trkpt lat="43.235230" lon="-2.918020"/>
      <trkpt lat="43.235430" lon="-2.918390"/>
      <trkpt lat="43.235630" lon="-2.918700"/>
      <trkpt lat="43.235830" lon="-2.918930"/>
      <trkpt lat="43.235920" lon="-2.919030"/>
      <trkpt lat="43.236290" lon="-2.919400"/>
      <trkpt lat="43.236980" lon="-2.919960"/>
      <trkpt lat="43.237350" lon="-2.920310"/>
      <trkpt lat="43.237730" lon="-2.920740"/>
      <trkpt lat="43.237880" lon="-2.920970"/>
      <trkpt lat="43.238000" lon="-2.921230"/>
      <trkpt lat="43.238100" lon="-2.921460"/>
      <trkpt lat="43.238180" lon="-2.921680"/>
      <trkpt lat="43.238270" lon="-2.922000"/>
      <trkpt lat="43.238330" lon="-2.922300"/>
      <trkpt lat="43.238380" lon="-2.922670"/>
      <trkpt lat="43.238440" lon="-2.923430"/>
      <trkpt lat="43.238460" lon="-2.923710"/>
      <trkpt lat="43.238480" lon="-2.923870"/>
      <trkpt lat="43.238560" lon="-2.924280"/>
      <trkpt lat="43.238640" lon="-2.924620"/>
      <trkpt lat="43.238780" lon="-2.924980"/>
      <trkpt lat="43.238950" lon="-2.925330"/>
      <trkpt lat="43.239150" lon="-2.925630"/>
      <trkpt lat="43.239330" lon="-2.925850"/>
      <trkpt lat="43.239550" lon="-2.926080"/>
      <trkpt lat="43.239870" lon="-2.926370"/>
      <trkpt lat="43.240160" lon="-2.926580"/>
      <trkpt lat="43.240350" lon="-2.926710"/>
      <trkpt lat="43.240850" lon="-2.926990"/>
      <trkpt lat="43.241040" lon="-2.927100"/>
      <trkpt lat="43.241600" lon="-2.927370"/>
      <trkpt lat="43.241840" lon="-2.927510"/>
      <trkpt lat="43.242020" lon="-2.927640"/>
      <trkpt lat="43.242180" lon="-2.927760"/>
      <trkpt lat="43.242400" lon="-2.927960"/>
      <trkpt lat="43.242610" lon="-2.928180"/>
      <trkpt lat="43.242780" lon="-2.928400"/>
      <trkpt lat="43.242920" lon="-2.928590"/>
      <trkpt lat="43.243020" lon="-2.928760"/>
      <trkpt lat="43.243180" lon="-2.929060"/>
      <trkpt lat="43.243430" lon="-2.929600"/>
      <trkpt lat="43.243600" lon="-2.929990"/>
      <trkpt lat="43.243750" lon="-2.930250"/>
      <trkpt lat="43.243910" lon="-2.930510"/>
      <trkpt lat="43.244070" lon="-2.930720"/>
      <trkpt lat="43.244300" lon="-2.930950"/>
      <trkpt lat="43.244710" lon="-2.931230"/>
      <trkpt lat="43.245380" lon="-2.931620"/>
      <trkpt lat="43.245830" lon="-2.931970"/>
      <trkpt lat="43.246100" lon="-2.932220"/>
      <trkpt lat="43.246330" lon="-2.932460"/>
      <trkpt lat="43.246580" lon="-2.932770"/>
      <trkpt lat="43.246810" lon="-2.933040"/>
      <trkpt lat="43.246960" lon="-2.933270"/>
      <trkpt lat="43.247150" lon="-2.933580"/>
      <trkpt lat="43.247330" lon="-2.933920"/>
      <trkpt lat="43.247540" lon="-2.934330"/>
      <trkpt lat="43.247790" lon="-2.934930"/>
      <trkpt lat="43.247900" lon="-2.935150"/>
      <trkpt lat="43.247980" lon="-2.935310"/>
      <trkpt lat="43.248130" lon="-2.935500"/>
      <trkpt lat="43.248270" lon="-2.935610"/>
      <trkpt lat="43.248410" lon="-2.935690"/>
      <trkpt lat="43.248610" lon="-2.935740"/>
      <trkpt lat="43.248790" lon="-2.935730"/>
      <trkpt lat="43.248950" lon="-2.935660"/>
      <trkpt lat="43.249090" lon="-2.935590"/>
      <trkpt lat="43.249240" lon="-2.935470"/>
      <trkpt lat="43.249460" lon="-2.935320"/>
      <trkpt lat="43.250050" lon="-2.934750"/>
      <trkpt lat="43.250080" lon="-2.934720"/>
      <trkpt lat="43.250100" lon="-2.934700"/>
      <trkpt lat="43.250170" lon="-2.934640"/>
      <trkpt lat="43.250190" lon="-2.934570"/>
      <trkpt lat="43.250300" lon="-2.934440"/>
      <trkpt lat="43.250430" lon="-2.934340"/>
      <trkpt lat="43.250540" lon="-2.934300"/>
      <trkpt lat="43.250650" lon="-2.934280"/>
      <trkpt lat="43.250730" lon="-2.934300"/>
      <trkpt lat="43.250770" lon="-2.934300"/>
      <trkpt lat="43.250830" lon="-2.934330"/>
      <trkpt lat="43.250970" lon="-2.934380"/>
      <trkpt lat="43.251240" lon="-2.934480"/>
      <trkpt lat="43.251410" lon="-2.934520"/>
      <trkpt lat="43.251480" lon="-2.934540"/>
      <trkpt lat="43.251620" lon="-2.934550"/>
      <trkpt lat="43.251640" lon="-2.934550"/>
      <trkpt lat="43.251670" lon="-2.934550"/>
      <trkpt lat="43.251900" lon="-2.934550"/>
      <trkpt lat="43.252200" lon="-2.934500"/>
      <trkpt lat="43.252240" lon="-2.934500"/>
      <trkpt lat="43.252260" lon="-2.934490"/>
      <trkpt lat="43.252300" lon="-2.934480"/>
      <trkpt lat="43.252330" lon="-2.934480"/>
      <trkpt lat="43.252490" lon="-2.934440"/>
      <trkpt lat="43.252890" lon="-2.934310"/>
      <trkpt lat="43.252930" lon="-2.934290"/>
      <trkpt lat="43.252940" lon="-2.934290"/>
      <trkpt lat="43.253080" lon="-2.934220"/>
      <trkpt lat="43.253130" lon="-2.934210"/>
      <trkpt lat="43.254120" lon="-2.933800"/>
      <trkpt lat="43.254540" lon="-2.933650"/>
      <trkpt lat="43.254600" lon="-2.933620"/>
      <trkpt lat="43.254730" lon="-2.933570"/>
      <trkpt lat="43.254730" lon="-2.933570"/>
      <trkpt lat="43.254940" lon="-2.933480"/>
      <trkpt lat="43.255340" lon="-2.933300"/>
      <trkpt lat="43.255440" lon="-2.933270"/>
      <trkpt lat="43.255590" lon="-2.933220"/>
      <trkpt lat="43.255680" lon="-2.933210"/>
      <trkpt lat="43.255800" lon="-2.933200"/>
      <trkpt lat="43.255890" lon="-2.933190"/>
      <trkpt lat="43.255990" lon="-2.933190"/>
      <trkpt lat="43.256200" lon="-2.933250"/>
      <trkpt lat="43.256230" lon="-2.933260"/>
      <trkpt lat="43.256340" lon="-2.933310"/>
      <trkpt lat="43.256380" lon="-2.933320"/>
      <trkpt lat="43.256500" lon="-2.933380"/>
      <trkpt lat="43.256750" lon="-2.933570"/>
      <trkpt lat="43.256880" lon="-2.933700"/>
      <trkpt lat="43.256970" lon="-2.933780"/>
      <trkpt lat="43.256980" lon="-2.933800"/>
      <trkpt lat="43.257080" lon="-2.933880"/>
      <trkpt lat="43.257180" lon="-2.933990"/>
      <trkpt lat="43.257240" lon="-2.934060"/>
      <trkpt lat="43.257270" lon="-2.934130"/>
      <trkpt lat="43.257280" lon="-2.934180"/>
      <trkpt lat="43.257290" lon="-2.934210"/>
      <trkpt lat="43.257310" lon="-2.934300"/>
      <trkpt lat="43.257320" lon="-2.934440"/>
      <trkpt lat="43.257310" lon="-2.934670"/>
      <trkpt lat="43.257320" lon="-2.934870"/>
      <trkpt lat="43.257320" lon="-2.934940"/>
      <trkpt lat="43.257360" lon="-2.935530"/>
      <trkpt lat="43.257370" lon="-2.935720"/>
      <trkpt lat="43.257380" lon="-2.936020"/>
      <trkpt lat="43.257430" lon="-2.937040"/>
      <trkpt lat="43.257510" lon="-2.937040"/>
      <trkpt lat="43.257550" lon="-2.937030"/>
      <trkpt lat="43.258030" lon="-2.936990"/>
      <trkpt lat="43.258080" lon="-2.936980"/>
      <trkpt lat="43.258110" lon="-2.936970"/>
      <trkpt lat="43.258180" lon="-2.936950"/>
      <trkpt lat="43.258470" lon="-2.936830"/>
    </trkseg>
  </trk>
</gpx>